{"0":{"nodes":"0","amenity":"toilets","created_by":"JOSM"},"1":{"nodes":"1","amenity":"parking","created_by":"JOSM"},"2":{"note":"situation : AVENUE DE LA GARE","nodes":"2","ref:FR:LaPoste":"10620A","phone":"3631","amenity":"post_office","name":"Moulins-Engilbert"},"3":{"official_name":"Brigade de gendarmerie de Moulins-Engilbert","ref:FR:GendarmerieNationale":"1012784","nodes":"3","phone":"+33 3 86 84 22 77","amenity":"police","operator:wikidata":"Q1422336","name":"Gendarmerie nationale","opening_hours":"Tu 08:00-12:00","police:FR":"gendarmerie","operator:wikipedia":"fr:Gendarmerie nationale française"},"4":{"school:FR":"secondaire","nodes":"4","amenity":"school","name":"Collège Les Deux Rivières","ref:UAI":"0580030T"},"5":{"nodes":"5","amenity":"pharmacy","name":"Pharmacie Bougrier","dispensing":"yes","ref:FR:FINESS":"580002426"},"6":{"nodes":"6","amenity":"pharmacy","name":"Pharmacie Pommier","dispensing":"yes","ref:FR:FINESS":"580002392"},"7":{"school:FR":"élémentaire","nodes":"7","amenity":"school","name":"École primaire","ref:UAI":"0580155D"},"8":{"nodes":"8","fuel:octane_95":"yes","amenity":"fuel","opening_hours":"24\/7","ref:FR:prix-carburants":"58290001","fuel:diesel":"yes","fuel:octane_98":"yes"},"800":{"nodes":"4291 4292 4293 4294 4295 4296 4291","building":"yes"},"9":{"nodes":"9","amenity":"parking"},"801":{"nodes":"2104 4297 4298 4299 2106 2105 2104","wall":"no","building":"yes"},"802":{"nodes":"3954 3958 4300 4301 4302 4303 3954","building":"yes"},"803":{"nodes":"4304 4305 4306 4307 4308 4309 4304","building":"yes"},"804":{"nodes":"4310 4311 4312 4313 4314 4315 4310","building":"yes"},"805":{"nodes":"4316 4317 1640 1639 4318 4319 4316","building":"yes"},"806":{"nodes":"4320 4321 4322 4323 4324 4325 4320","building":"yes"},"807":{"nodes":"4326 4327 4328 4329 4330 4331 4326","building":"yes"},"808":{"nodes":"4332 4333 4334 4335 4336 4337 4332","building":"yes"},"809":{"nodes":"4338 387 386 4339 4340 4341 4338","building":"yes"},"1000":{"nodes":"3004 3003 5084 5085 3796 2257 2256 2354 3004","wall":"no","building":"yes"},"810":{"nodes":"4342 4343 4344 4345 4346 4347 4342","building":"yes"},"811":{"nodes":"4348 4349 4350 4351 4352 4353 4348","building":"yes"},"812":{"nodes":"4354 3848 3847 4355 4356 4357 4354","building":"yes"},"813":{"nodes":"4358 4359 4360 4361 4362 4363 4358","building":"yes"},"814":{"nodes":"3336 3335 3334 4364 4365 4366 3336","wall":"no","building":"yes"},"815":{"nodes":"4367 4368 4369 4370 2856 2855 4367","building":"yes"},"816":{"nodes":"1213 4371 2428 2427 4372 1214 1213","building":"yes"},"817":{"nodes":"4373 4374 4375 4376 4377 4378 4373","building":"yes"},"818":{"nodes":"4379 4380 4381 4382 4383 4384 4379","building":"yes"},"819":{"nodes":"373 4385 4386 4387 375 374 373","building":"yes"},"1011":{"nodes":"3262 3261 5133 5134 5135 5136 4438 4437 3262","building":"yes"},"1010":{"nodes":"77 5129 5130 5131 5132 4715 4714 78 77","building":"yes"},"1008":{"nodes":"5118 5119 5120 5121 5122 5123 5124 5125 5118","building":"yes"},"1007":{"nodes":"5110 5111 5112 5113 5114 5115 5116 5117 5110","building":"yes"},"1006":{"nodes":"1333 5105 5106 5107 5108 5109 1335 1334 1333","building":"yes"},"1005":{"nodes":"2871 2874 4275 4274 3493 3492 5103 5104 2871","building":"yes"},"1004":{"nodes":"3544 870 869 868 867 5102 1358 1357 3544","building":"yes"},"1003":{"nodes":"5094 5095 5096 5097 5098 5099 5100 5101 5094","building":"yes"},"820":{"nodes":"2813 4388 4389 4390 4391 2814 2813","building":"yes"},"1002":{"nodes":"1709 5090 5091 5092 5093 5001 5000 1710 1709","building":"yes"},"821":{"nodes":"4392 4393 4394 4395 4396 4397 4392","building":"yes"},"1001":{"nodes":"2365 2368 4170 4169 5086 5087 5088 5089 2365","building":"yes"},"822":{"nodes":"4398 4399 4400 4401 4402 4403 4398","building":"yes"},"823":{"nodes":"4404 4405 4406 4407 4408 4409 4404","building":"yes"},"824":{"nodes":"4410 4411 4412 3936 3935 4413 4410","building":"yes"},"825":{"nodes":"4414 4415 4416 4417 4418 4419 4414","building":"yes"},"826":{"nodes":"4273 2360 2359 3490 3493 4274 4273","building":"yes"},"827":{"nodes":"4420 4421","building":"yes"},"828":{"nodes":"1051 4422 4423 1054 1053 1052 1051","wall":"no","building":"yes"},"829":{"nodes":"4424 4425 4426 4427 4428 4429 4424","building":"yes"},"1009":{"nodes":"5126 1641 1656 1655 1658 1657 5127 5128 5126","building":"yes"},"1022":{"nodes":"5192 5193 5194 5195 5196 4443 4446 5197 5192","building":"yes"},"1021":{"nodes":"4748 5186 5187 5188 5189 5190 5191 4749 4748","building":"yes"},"1020":{"nodes":"5178 5179 5180 5181 5182 5183 5184 5185 5178","building":"yes"},"1019":{"nodes":"4223 4226 2302 2301 5174 5175 5176 5177 4223","building":"yes"},"1018":{"nodes":"5166 5167 5168 5169 5170 5171 5172 5173 5166","building":"yes"},"1017":{"nodes":"5158 5159 5160 5161 5162 5163 5164 5165 5158","building":"yes"},"1016":{"nodes":"3172 5154 5155 5156 3430 3429 5157 3173 3172","building":"yes"},"1015":{"nodes":"3993 5151 5152 3709 3708 3707 5153 3994 3993","building":"yes"},"830":{"nodes":"4429 4428 4430 4431 4432 4433 4429","building":"yes"},"1014":{"nodes":"5143 5144 5145 5146 5147 5148 5149 5150 5143","building":"yes"},"831":{"nodes":"4434 4435 2819 2818 2817 4436 4434","wall":"no","building":"yes"},"1013":{"nodes":"1844 1843 1984 1983 1982 5140 5141 5142 1844","building":"yes"},"832":{"nodes":"4437 4438 4439 4440 4441 4442 4437","building":"yes"},"1012":{"nodes":"3687 3691 5137 5138 5139 2446 2445 3692 3687","building":"yes"},"833":{"nodes":"4443 4444 4445 504 503 4446 4443","building":"yes"},"834":{"nodes":"2220 4447 301 300 4448 2221 2220","wall":"no","building":"yes"},"835":{"nodes":"4449 4450 4451 4452 1839 1838 4449","building":"yes"},"836":{"nodes":"3503 2533 2536 3790 3789 3504 3503","building":"yes"},"837":{"nodes":"4453 4454 4455 4456 4457 4458 4453","building":"yes"},"838":{"nodes":"2587 4459 4460 4461 2589 2588 2587","building":"yes"},"839":{"nodes":"4462 4463 4464 4465 4466 4467 4462","building":"yes"},"1033":{"nodes":"3124 5254 5255 5256 5257 5258 3126 3125 3124","building":"yes"},"1032":{"nodes":"5246 5247 5248 5249 5250 5251 5252 5253 5246","building":"yes"},"1031":{"nodes":"5240 5241 5242 5243 5244 2362 2361 5245 5240","building":"yes"},"1030":{"nodes":"5238 5239 4974 1139 1138 1723 1722 1721 5238","building":"yes"},"1029":{"nodes":"5230 5231 5232 5233 5234 5235 5236 5237 5230","building":"yes"},"1028":{"nodes":"5222 5223 5224 5225 5226 5227 5228 5229 5222","building":"yes"},"1027":{"nodes":"5214 5215 5216 5217 5218 5219 5220 5221 5214","building":"yes"},"840":{"nodes":"3938 4468 4469 3845 1028 1027 3938","building":"yes"},"1026":{"nodes":"4830 5210 5211 5212 5213 4833 4832 4831 4830","building":"yes"},"841":{"nodes":"4470 4471 4472 4473 4474 4475 4470","building":"yes"},"1025":{"nodes":"3494 3495 5204 5205 5206 5207 5208 5209 3494","building":"yes"},"600":{"nodes":"3569 3570 3571 3572 3573 3569","building":"yes"},"842":{"nodes":"4476 4477 4478 4479 4480 4481 4476","building":"yes"},"1024":{"nodes":"4867 4866 5203 1322 1321 1320 1319 1318 4867","building":"yes"},"601":{"nodes":"265 264 3574 3575 3576 265","building":"yes"},"843":{"nodes":"1595 1594 703 702 4482 4483 1595","building":"yes"},"1023":{"nodes":"1412 1411 4596 5198 5199 5200 5201 5202 1412","building":"yes"},"602":{"nodes":"3577 1563 1562 3578 3579 3577","wall":"no","building":"yes"},"844":{"nodes":"3602 3606 3619 1298 1297 4484 3602","building":"yes"},"603":{"nodes":"3580 3581 3582 3583 3584 3580","building":"yes"},"845":{"nodes":"4151 2192 2191 2190 4485 4486 4151","wall":"no","building":"yes"},"604":{"nodes":"3072 3075 3585 3586 3587 3072","wall":"no","building":"yes"},"846":{"nodes":"2515 2518 4487 4488 4489 4490 2515","building":"yes"},"605":{"nodes":"2483 2486 3588 3589 3590 2483","building":"yes"},"847":{"nodes":"3779 3778 4491","building":"yes"},"606":{"nodes":"2962 3591 3592 3593 2963 2962","building":"yes"},"848":{"nodes":"4492 4493 4494 4495 4496 4497 4492","building":"yes"},"607":{"nodes":"2447 2450 3594 3595 3596 2447","building":"yes"},"849":{"nodes":"4498 4499 4500 4501 4502 4503 4498","building":"yes"},"608":{"nodes":"3597 3598 3599 3600 3601 3597","building":"yes"},"609":{"nodes":"3602 3603 3604 3605 3606 3602","wall":"no","building":"yes"},"1044":{"nodes":"4434 4436 1882 1881 3059 5315 5316 5317 4434","building":"yes"},"1043":{"nodes":"5309 5310 5311 5312 5313 5314 3471 3470 5309","building":"yes"},"1042":{"nodes":"2985 2988 2987 5304 5305 5306 5307 5308 2985","building":"yes"},"1041":{"nodes":"5296 5297 5298 5299 5300 5301 5302 5303 5296","building":"yes"},"1040":{"nodes":"3377 5290 5291 5292 5293 5294 5295 3378 3377","building":"yes"},"1039":{"nodes":"1732 5286 5287 5288 5289 1282 1281 1733 1732","building":"yes"},"850":{"nodes":"1750 1569 1568 1567 1752 1751 1750","building":"yes"},"1038":{"nodes":"2471 1286 1299 4281 4280 5283 5284 5285 2471","building":"yes"},"851":{"nodes":"4504 4505 4506 4182 4181 4507 4504","wall":"no","building":"yes"},"1037":{"nodes":"5275 5276 5277 5278 5279 5280 5281 5282 5275","building":"yes"},"610":{"nodes":"2060 2059 2058 3607 2699 2060","building":"yes"},"852":{"nodes":"4508 4509 4510 4511 4512 4513 4508","building":"yes"},"1036":{"nodes":"829 828 827 826 5271 5272 5273 5274 829","building":"yes"},"611":{"nodes":"857 856 855 3608 3609 857","building":"yes"},"853":{"nodes":"3987 4013 1855 1854 4514 4515 3987","building":"yes"},"1035":{"nodes":"5263 5264 5265 5266 5267 5268 5269 5270 5263","building":"yes"},"612":{"nodes":"1430 73 70 79 1431 1430","building":"yes"},"854":{"nodes":"4516 4517 4518 4519 4520 4521 4516","building":"yes"},"1034":{"nodes":"187 5259 5260 5261 5192 5197 5262 188 187","building":"yes"},"613":{"nodes":"3610 3611 3612 3613 3614 3610","building":"yes"},"855":{"nodes":"3962 3966 4522 4523 4524 4525 3962","building":"yes"},"614":{"nodes":"3615 3102 3105 3616 3617 3615","building":"yes"},"856":{"nodes":"3196 3199 4526 4527 4528 4529 3196","building":"yes"},"615":{"nodes":"3618 3619 3606 3605 3620 3618","building":"yes"},"857":{"nodes":"4530 4531 4532 4533","building":"yes"},"616":{"nodes":"3621 1434 1433 3622 3623 3621","building":"yes"},"858":{"nodes":"4534 4535 4536 4537 4538 4539 4534","building":"yes"},"617":{"nodes":"2356 3624 3005 3004 2354 2356","building":"yes"},"859":{"nodes":"3913 4540 4541 4542 4543 3914 3913","building":"yes"},"618":{"nodes":"3625 3626 3627 3628 3629 3625","building":"yes"},"619":{"nodes":"2785 3630 3631 3632 2786 2785","building":"yes"},"1055":{"nodes":"5376 5377 5378 5156 5155 1007 1006 1005 5376","building":"yes"},"1054":{"nodes":"5368 5369 5370 5371 5372 5373 5374 5375 5368","building":"yes"},"1053":{"nodes":"5362 5363 5364 5365 5366 5367 200 199 5362","building":"yes"},"1052":{"nodes":"5354 5355 5356 5357 5358 5359 5360 5361 5354","building":"yes"},"1051":{"nodes":"5346 5347 5348 5349 5350 5351 5352 5353 5346","building":"yes"},"1050":{"nodes":"5338 5339 5340 5341 5342 5343 5344 5345 5338","building":"yes"},"860":{"nodes":"4544 4545 579 578 4546 4547 4544","building":"yes"},"861":{"nodes":"4548 4549 4550 4551 4552 4553 4548","building":"yes"},"1049":{"nodes":"3982 2305 4523 4522 5334 5335 5336 5337 3982","building":"yes"},"620":{"nodes":"3633 3634 3012 3011 3635 3633","building":"yes"},"862":{"nodes":"4554 4555 4556 4557 4558 4559 4554","building":"yes"},"1048":{"nodes":"5326 5327 5328 5329 5330 5331 5332 5333 5326","building":"yes"},"621":{"nodes":"3636 3637 3638 3639 3640 3636","building":"yes"},"863":{"nodes":"4560 4561 4562 3678 3677 4563 4560","building":"yes"},"1047":{"nodes":"4125 4130 4129 4283 241 240 239 5325 4125","building":"yes"},"622":{"nodes":"2270 2269 3641 3642 3643 2270","building":"yes"},"864":{"nodes":"4564 4565 4566 4567 4568 4569 4564","building":"yes"},"1046":{"nodes":"1702 1718 5321 5322 357 356 5323 5324 1702","wall":"no","building":"yes"},"623":{"nodes":"2293 2296 3644 3645 3646 2293","building":"yes"},"865":{"nodes":"4570 4571 4572 4573 4574 4575 4570","building":"yes"},"1045":{"nodes":"2260 2259 2258 5318 2387 2386 5319 5320 2260","building":"yes"},"624":{"nodes":"2240 2243 2664 2663 3647 2240","building":"yes"},"866":{"nodes":"3233 3236 4576 4577 4578 4579 3233","building":"yes"},"625":{"nodes":"3648 3649 3650 3651 3652 3648","building":"yes"},"867":{"nodes":"1627 1073 1085 1084 4580 4581 1627","wall":"no","building":"yes"},"626":{"nodes":"3653 3654 3655 3656 3657 3653","building":"yes"},"868":{"nodes":"3132 3135 479 478 477 4582 3132","building":"yes"},"627":{"nodes":"3508 1879 1878 3658 3509 3508","building":"yes"},"869":{"nodes":"4583 4584 4585 4586 4587 4588 4583","building":"yes"},"628":{"nodes":"3659 755 754 3660 3661 3659","wall":"no","building":"yes"},"629":{"nodes":"3662 3663 3664 3665 3666 3662","building":"yes"},"1066":{"nodes":"5413 5414 5415 5416 5417 5418 5419 5420 5413","building":"yes"},"1065":{"nodes":"2232 2235 5304 2987 2986 5410 5411 5412 2232","building":"yes"},"1064":{"nodes":"2275 2278 2277 5405 5406 5407 5408 5409 2275","building":"yes"},"1063":{"nodes":"5397 5398 5399 5400 5401 5402 5403 5404 5397","building":"yes"},"1062":{"nodes":"3464 4945 4944 5396 4767 4766 4765 3465 3464","building":"yes"},"1061":{"nodes":"4358 4834 28 27 2922 4361 4360 4359 4358","wall":"no","building":"yes"},"1060":{"nodes":"1327 1326 1325 1324 1323 5109 5108 5107 1327","building":"yes"},"870":{"nodes":"283 292 291 1660 4286 4285 283","building":"yes"},"871":{"nodes":"4589 4590 4591 4592 4593 4594 4589","building":"yes"},"630":{"nodes":"3667 3668 3669 3670 3671 3667","building":"yes"},"872":{"nodes":"4595 4596 1411 1410 1409 1408 4595","wall":"no","building":"yes"},"631":{"nodes":"3672 3673 3674 3675 3676 3672","wall":"no","building":"yes"},"873":{"nodes":"1108 4597 4598 1111 1110 1109 1108","wall":"no","building":"yes"},"1059":{"nodes":"5246 5253 5252 5251 5250 5249 5394 5395 5246","wall":"no","building":"yes"},"632":{"nodes":"3677 3678 3679 3680 3681 3677","building":"yes"},"874":{"nodes":"4599 4600 4601 4602 4603 4604 4599","building":"yes"},"1058":{"nodes":"5388 5389 5390 5391 5392 5393 432 431 5388","building":"yes"},"633":{"nodes":"420 121 120 119 421 420","building":"yes"},"875":{"nodes":"4605 4606 4607 2424 2423 4608 4605","building":"yes"},"1057":{"nodes":"3915 3914 4543 5383 5384 5385 5386 5387 3915","building":"yes"},"634":{"nodes":"3682 3683 3684 3685 3686 3682","wall":"no","building":"yes"},"876":{"nodes":"3180 4609 4610 4611 3178 3181 3180","wall":"no","building":"yes"},"1056":{"nodes":"1972 5379 5380 5381 5382 1975 1974 1973 1972","wall":"no","building":"yes"},"635":{"nodes":"3687 3688 3689 3690 3691 3687","building":"yes"},"877":{"nodes":"3704 3703 4612 4613 4614 4615 3704","building":"yes"},"636":{"nodes":"3687 3692 3693 3694 3688 3687","wall":"no","building":"yes"},"878":{"nodes":"3285 3288 3287 4616 4617 4618 3285","building":"yes"},"637":{"nodes":"3409 3412 3695 3696 3697 3409","building":"yes"},"879":{"nodes":"4619 4620 4621 4622 4623 4624 4619","building":"yes"},"638":{"nodes":"3698 3699 3700 3701 3702 3698","wall":"no","building":"yes"},"639":{"nodes":"2849 752 751 3703 3704 2849","wall":"no","building":"yes"},"1077":{"nodes":"5468 5469 5470 5471 5472 5473 5474 5475 5476 5468","building":"yes"},"1076":{"nodes":"4916 5464 5465 5466 3228 718 717 5467 4917 4916","building":"yes"},"1075":{"nodes":"3273 3276 4889 4888 4887 5462 2659 2658 5463 3273","building":"yes"},"1074":{"nodes":"1582 5455 5456 5457 5458 5459 5460 5461 1583 1582","building":"yes"},"1073":{"nodes":"5451 2291 2290 3841 3840 3839 5452 5453 5454 5451","building":"yes"},"1072":{"nodes":"4371 1213 1225 1000 999 3173 5157 5449 5450 4371","building":"yes"},"1071":{"nodes":"2294 5442 5443 5444 5445 5446 5447 5448 2295 2294","building":"yes"},"1070":{"nodes":"3873 3872 1970 1969 5437 5438 5439 5440 5441 3873","building":"yes"},"880":{"nodes":"4625 4626 4627 4628 4625","building":"yes"},"881":{"nodes":"3987 4515 4514 1854 4629 3985 3987","wall":"no","building":"yes"},"640":{"nodes":"799 583 582 3705 3706 799","wall":"no","building":"yes"},"882":{"nodes":"4630 4631 4632 4633 4634 4635 4630","building":"yes"},"641":{"nodes":"648 3707 3708 3709 649 648","building":"yes"},"883":{"nodes":"4636 4637 4638 4639 4640 4641 4636","building":"yes"},"400":{"nodes":"2911 2912 2913 2914 2911","building":"yes"},"642":{"nodes":"3710 3711 3710","building":"yes"},"884":{"nodes":"633 4642 4643 4644 4645 634 633","building":"yes"},"401":{"nodes":"1497 1496 2915 2916 1497","wall":"no","building":"yes"},"643":{"nodes":"2743 2746 3712 3713 3714 2743","wall":"no","building":"yes"},"885":{"nodes":"4646 4647 4648 4649 4650 4651 4646","building":"yes"},"1069":{"nodes":"5432 5433 5434 5435 5436 3006 3005 3624 5432","building":"yes"},"402":{"nodes":"2917 2918 2919 2920 2917","building":"yes"},"644":{"nodes":"3202 3715 3716 3717 3203 3202","wall":"no","building":"yes"},"886":{"nodes":"3445 4652 2313 43 42 86 3445","building":"yes"},"1068":{"nodes":"5424 5425 5426 5427 5428 5429 5430 5431 5424","building":"yes"},"403":{"nodes":"26 2921 2922 27 26","wall":"no","building":"yes"},"645":{"nodes":"3718 3719 3720 3721 3722 3718","building":"yes"},"887":{"nodes":"3214 4653 4654 2115 2114 3215 3214","wall":"no","building":"yes"},"1067":{"nodes":"1600 1599 5421 5422 701 700 699 5423 1600","building":"yes"},"404":{"nodes":"2923 2924 2925 2926 2923","building":"yes"},"646":{"nodes":"3723 3724 3725 3726 3723","building":"yes"},"888":{"nodes":"4077 4076 4576 3236 3235 4655 4077","building":"yes"},"405":{"nodes":"2927 2928 2929 2930 2927","building":"yes"},"647":{"nodes":"1086 137 136 3727 3728 1086","wall":"no","building":"yes"},"889":{"nodes":"4656 4657 4658 4659 4660 4661 4656","building":"yes"},"406":{"nodes":"2931 2932 2933 2934 2931","building":"yes"},"648":{"nodes":"3017 3729 540 539 3018 3017","building":"yes"},"407":{"nodes":"2477 1127 1126 2935 2477","building":"yes"},"649":{"nodes":"1528 384 383 3730 1529 1528","building":"yes"},"408":{"nodes":"2936 2937 2938 2939 2936","wall":"no","building":"yes"},"409":{"nodes":"1652 1651 2940 2941 1652","building":"yes"},"1080":{"nodes":"5479 5162 5161 5160 5480 5481 5482 5483 5484 5479","building":"yes"},"1088":{"nodes":"4872 5517 5518 5519 5520 4605 4608 4874 4873 4872","building":"yes"},"1087":{"nodes":"4486 4485 2190 1150 1149 4962 5514 5515 5516 4486","building":"yes"},"1086":{"nodes":"5511 5512 3133 3132 4582 477 476 1050 5513 5511","wall":"no","building":"yes"},"1085":{"nodes":"363 5509 5510 5410 2986 2985 5308 5307 364 363","building":"yes"},"1084":{"nodes":"2946 2949 4168 4167 5506 4600 4599 5507 5508 2946","building":"yes"},"1083":{"nodes":"5094 5499 5500 5501 5502 5503 5504 5505 5095 5094","building":"yes"},"1082":{"nodes":"5492 5493 5494 5495 5496 5497 3252 3251 5498 5492","building":"yes"},"890":{"nodes":"4662 4663 4664 4665 4666 4667 4662","building":"yes"},"1081":{"nodes":"5485 5486 5487 5488 5489 1448 1447 5490 5491 5485","building":"yes"},"891":{"nodes":"4557 4668 4669 4554 4559 4558 4557","wall":"no","building":"yes"},"650":{"nodes":"3731 3732 3733 3734 3735 3731","building":"yes"},"892":{"nodes":"3803 4670 4671 4672 1571 1570 3803","building":"yes"},"651":{"nodes":"1360 3736 3737 1362 1361 1360","building":"yes"},"893":{"nodes":"2765 2768 4673 4674 4675 4676 2765","building":"yes"},"410":{"nodes":"2942 2943 2944 2945 2942","building":"yes"},"652":{"nodes":"3086 3738 3739 3740 3087 3086","wall":"no","building":"yes"},"894":{"nodes":"430 429 428 427 4677 4678 430","building":"yes"},"411":{"nodes":"2946 2947 2948 2949 2946","wall":"no","building":"yes"},"653":{"nodes":"3741 3742 3743 3744 3745 3741","building":"yes"},"895":{"nodes":"3963 4679 4680 4681 3965 3964 3963","building":"yes"},"412":{"nodes":"2950 2951 2952 2953 2950","building":"yes"},"654":{"nodes":"3746 3747 3748 3749 3750 3746","building":"yes"},"896":{"nodes":"2353 2352 2351 4682 4683 4684 4685 2353","building":"yes"},"413":{"nodes":"2954 2955 2956 2957 2954","building":"yes"},"655":{"nodes":"3751 1131 1130 1129 3752 3751","wall":"no","building":"yes"},"897":{"nodes":"3829 3830 4011 4686 3198 3197 4687 3829","building":"yes"},"1079":{"nodes":"4615 4614 4613 3939 3661 3660 754 753 2850 4615","building":"yes"},"414":{"nodes":"2958 2959 2960 2961 2958","building":"yes"},"656":{"nodes":"2304 2303 3753 3754 3755 2304","building":"yes"},"898":{"nodes":"4688 4689 4690 4691 4692 4693 4688","building":"yes"},"1078":{"nodes":"2188 2187 4805 4804 1143 1142 2189 5477 5478 2188","building":"yes"},"415":{"nodes":"2962 2963 2964 2965 2962","wall":"no","building":"yes"},"657":{"nodes":"3756 3757 3758 3759 3760 3756","building":"yes"},"899":{"nodes":"3472 3475 4694 4695 4696 4697 4698 3472","building":"yes"},"416":{"nodes":"771 781 2966 2967 771","wall":"no","building":"yes"},"658":{"nodes":"3501 3500 3761 3747 3746 3501","building":"yes"},"417":{"nodes":"1670 1669 1668 2968 1670","wall":"no","building":"yes"},"659":{"nodes":"3762 3763 2835 2838 3764 3762","wall":"no","building":"yes"},"418":{"nodes":"2969 2970 2971 2972 2969","wall":"no","building":"yes"},"419":{"nodes":"2973 2974 2975 2976 2973","building":"yes"},"1091":{"nodes":"1912 1911 4817 4816 5528 5529 5530 5531 5532 1912","building":"yes"},"1090":{"nodes":"3616 5524 4758 4757 5525 5526 5527 3615 3617 3616","building":"yes"},"1099":{"nodes":"4876 204 203 5556 5557 5558 5559 5560 4877 4876","building":"yes"},"1098":{"nodes":"3659 3941 3940 5554 2584 2583 5555 756 755 3659","building":"yes"},"1097":{"nodes":"4126 5548 5549 5550 5551 5552 5553 4128 4127 4126","building":"yes"},"1096":{"nodes":"5539 5540 5541 5542 5543 5544 5545 5546 5547 5539","building":"yes"},"1095":{"nodes":"153 5537 5538 159 158 157 156 155 154 153","building":"yes"},"1094":{"nodes":"3849 5536 451 450 449 448 447 3851 3850 3849","building":"yes"},"1093":{"nodes":"224 5534 5535 1756 1755 1754 1753 226 225 224","building":"yes"},"1092":{"nodes":"5314 5313 5312 4612 3703 751 750 749 5533 5314","building":"yes"},"660":{"nodes":"274 3765 277 276 275 274","building":"yes"},"661":{"nodes":"3766 3767 3768 3769 3770 3766","wall":"no","building":"yes"},"420":{"nodes":"2977 2978 2979 2980 2977","building":"yes"},"662":{"nodes":"3771 3772 3773 3774 3775 3771","building":"yes"},"421":{"nodes":"2981 2982 2983 2984 2981","wall":"no","building":"yes"},"663":{"nodes":"3776 3777 3778 3779","wall":"no","building":"yes"},"422":{"nodes":"2985 2986 2987 2988 2985","wall":"no","building":"yes"},"664":{"nodes":"3780 3781 3782 3783 3784 3780","building":"yes"},"423":{"nodes":"2989 2990 2991 2992 2989","building":"yes"},"665":{"nodes":"1713 1712 1834 1833 1832 1713","building":"yes"},"424":{"nodes":"1274 1273 2993 2994 1274","building":"yes"},"666":{"nodes":"3785 369 368 367 3786 3785","building":"yes"},"425":{"nodes":"2995 2996 2997 2998 2995","building":"yes"},"667":{"nodes":"3787 3788 3789 3790 3791 3787","building":"yes"},"1089":{"nodes":"5521 2620 2619 5522 5523 4907 4906 4905 4904 5521","building":"yes"},"426":{"nodes":"2999 3000 3001 3002 2999","building":"yes"},"668":{"nodes":"3792 3053 3052 3793 3794 3792","wall":"no","building":"yes"},"427":{"nodes":"3003 3004 3005 3006 3003","building":"yes"},"669":{"nodes":"3795 2254 2257 3796 3797 3795","building":"yes"},"428":{"nodes":"3007 3008 3009 3010 3007","building":"yes"},"429":{"nodes":"366 365 3011 3012 366","building":"yes"},"670":{"nodes":"3798 3799 3800 3801 3802 3798","building":"yes"},"671":{"nodes":"3803 1570 1569 1750 3804 3803","wall":"no","building":"yes"},"430":{"nodes":"3013 3014 3015 3016 3013","building":"yes"},"672":{"nodes":"3805 3806 3807 3808 3809 3805","wall":"no","building":"yes"},"431":{"nodes":"3017 3018 3019 3020 3017","wall":"no","building":"yes"},"673":{"nodes":"3810 3811 3564 3568 3812 3810","building":"yes"},"432":{"nodes":"3021 3022 3023 3024 3021","building":"yes"},"674":{"nodes":"3813 3814 3815 3816 3817 3813","building":"yes"},"433":{"nodes":"3025 3026 3027 3028 3025","building":"yes"},"675":{"nodes":"2512 2511 3818 3819 3820 2512","building":"yes"},"434":{"nodes":"3029 3030 3031 3032 3029","building":"yes"},"676":{"nodes":"3821 746 745 3822 3823 3821","building":"yes"},"435":{"nodes":"3033 3034 3035 3036 3033","building":"yes"},"677":{"nodes":"3824 3825 3826 3827 3828 3824","building":"yes"},"436":{"nodes":"3037 3038 3039 3040 3037","building":"yes"},"678":{"nodes":"3829 433 442 441 3830 3829","wall":"no","building":"yes"},"437":{"nodes":"3041 2063 2062 2061 3041","wall":"no","building":"yes"},"679":{"nodes":"3831 3832 3833 3834 3835 3831","building":"yes"},"438":{"nodes":"3042 3043 3044 3045 3042","building":"yes"},"439":{"nodes":"3046 3047 3048 3049 3046","wall":"no","building":"yes"},"680":{"nodes":"3836 3837 3467 3466 3838 3836","building":"yes"},"681":{"nodes":"2532 3839 3840 3841 2531 2532","building":"yes"},"440":{"nodes":"3050 3051 3052 3053 3050","building":"yes"},"682":{"nodes":"3842 3843 2885 2884 3844 3842","building":"yes"},"441":{"nodes":"3054 3055 3056 3057 3054","wall":"no","building":"yes"},"683":{"nodes":"800 811 1028 3845 3846 800","wall":"no","building":"yes"},"200":{"nodes":"1696 2244 2245 1697 1696","building":"yes"},"442":{"nodes":"3058 3059 1881 1880 3058","building":"yes"},"684":{"nodes":"3748 3747 3761 3847 3848 3748","building":"yes"},"201":{"nodes":"2246 2247 2248 2249 2246","building":"yes"},"443":{"nodes":"3060 3061 3062 3063 3060","building":"yes"},"685":{"nodes":"3849 3850 3851 3852 3853 3849","building":"yes"},"202":{"nodes":"2250 2251 2252 2253 2250","building":"yes"},"444":{"nodes":"3064 3065 3066 3067 3064","building":"yes"},"686":{"nodes":"3854 3855 3856 3857 3858 3854","building":"yes"},"203":{"nodes":"2254 2255 2256 2257 2254","wall":"no","building":"yes"},"445":{"nodes":"3068 3069 3070 3071 3068","building":"yes"},"687":{"nodes":"3859 3860 3861 3862 3863 3859","building":"yes"},"204":{"nodes":"2258 2259 2260 2261 2258","wall":"no","building":"yes"},"446":{"nodes":"3072 3073 3074 3075 3072","wall":"no","building":"yes"},"688":{"nodes":"3864 3865 3866 3867 3868 3864","building":"yes"},"205":{"nodes":"986 997 996 2262 986","wall":"no","building":"yes"},"447":{"nodes":"3076 3077 816 815 3076","building":"yes"},"689":{"nodes":"3869 3870 3871 3872 3873 3869","building":"yes"},"206":{"nodes":"2263 2264 2265 2266 2263","wall":"no","building":"yes"},"448":{"nodes":"3078 3079 3080 3081 3078","building":"yes"},"207":{"nodes":"2267 2268 2269 2270 2267","building":"yes"},"449":{"nodes":"3082 3083 3084 3085 3082","building":"yes"},"208":{"nodes":"2271 2272 2273 2274 2271","building":"yes"},"209":{"nodes":"2275 2276 2277 2278 2275","wall":"no","building":"yes"},"690":{"nodes":"1824 3874 3875 1826 1825 1824","building":"yes"},"691":{"nodes":"3362 609 617 616 3876 3362","wall":"no","building":"yes"},"450":{"nodes":"3086 3087 3088 3089 3086","building":"yes"},"692":{"nodes":"3073 3877 3878 3879 3074 3073","building":"yes"},"451":{"nodes":"3090 3091 3092 3093 3090","building":"yes"},"693":{"nodes":"91 1517 1531 1530 92 91","building":"yes"},"210":{"nodes":"2279 2280 2281 2282 2279","building":"yes"},"452":{"nodes":"3094 3095 3096 3097 3094","building":"yes"},"694":{"nodes":"1260 1272 3225 3224 1261 1260","wall":"no","building":"yes"},"211":{"nodes":"1163 1173 2283 2284 1163","building":"yes"},"453":{"nodes":"3098 3099 3100 3101 3098","building":"yes"},"695":{"nodes":"3880 3881 3882 3883 3884 3880","building":"yes"},"212":{"nodes":"2285 2286 2287 2288 2285","building":"yes"},"454":{"nodes":"3102 3103 3104 3105 3102","building":"yes"},"696":{"nodes":"3885 3886 462 461 3887 3885","building":"yes"},"213":{"nodes":"2289 2290 2291 2292 2289","building":"yes"},"455":{"nodes":"3106 3107 3108 3109 3106","wall":"no","building":"yes"},"697":{"nodes":"2495 553 552 3888 2496 2495","building":"yes"},"214":{"nodes":"2293 2294 2295 2296 2293","wall":"no","building":"yes"},"456":{"nodes":"3110 76 75 3111 3110","building":"yes"},"698":{"nodes":"833 3889 426 425 424 833","building":"yes"},"215":{"nodes":"2297 2298 2299 2300 2297","building":"yes"},"457":{"nodes":"3112 3113 3114 3115 3112","building":"yes"},"699":{"nodes":"3890 3891 3892 3893 3894 3890","wall":"no","building":"yes"},"216":{"nodes":"2301 2302 2303 2304 2301","building":"yes"},"458":{"nodes":"3116 3117 3118 3119 3116","building":"yes"},"217":{"nodes":"2305 2306 2307 2308 2305","wall":"no","building":"yes"},"459":{"nodes":"3120 3121 3122 3123 3120","building":"yes"},"218":{"nodes":"2309 2310 2311 2312 2309","building":"yes"},"219":{"nodes":"1687 44 43 2313 1687","wall":"no","building":"yes"},"460":{"nodes":"3124 3125 3126 3127 3124","wall":"no","building":"yes"},"461":{"nodes":"3128 3129 3130 3131 3128","building":"yes"},"220":{"nodes":"2314 2315 2316 2317 2314","building":"yes"},"462":{"nodes":"3132 3133 3134 3135 3132","building":"yes"},"221":{"nodes":"2318 2319 2320 2321 2318","building":"yes"},"463":{"nodes":"2516 3136 3137 2517 2516","building":"yes"},"222":{"nodes":"2322 2323 2324 2325 2322","building":"yes"},"464":{"nodes":"3138 3139 3140 3141 3138","building":"yes"},"223":{"nodes":"2326 2327 2328 2329 2326","building":"yes"},"465":{"nodes":"3142 3143 3144 3145 3142","wall":"no","building":"yes"},"224":{"nodes":"2330 2331 2332 2333 2330","building":"yes"},"466":{"nodes":"3146 3147 3148 3149 3146","building":"yes"},"225":{"nodes":"2334 2335 2336 2337 2334","building":"yes"},"467":{"nodes":"3150 3151 3152 3153 3150","building":"yes"},"226":{"nodes":"2338 2339 2340 2341 2338","building":"yes"},"468":{"nodes":"2558 3154 3155 2555 2558","building":"yes"},"227":{"nodes":"2342 2343 2344 2345 2342","building":"yes"},"469":{"nodes":"3156 3157 3158 3159 3156","building":"yes"},"228":{"nodes":"2346 2347 2348 2349 2346","building":"yes"},"229":{"nodes":"2350 2351 2352 2353 2350","wall":"no","building":"yes"},"470":{"nodes":"3160 3161 3162 3163 3160","building":"yes"},"471":{"nodes":"1672 1686 1060 1072 1672","wall":"no","building":"yes"},"230":{"nodes":"2354 2256 2355 2356 2354","building":"yes"},"472":{"nodes":"3164 3165 3166 3167 3164","building":"yes"},"231":{"nodes":"2357 2358 2359 2360 2357","building":"yes"},"473":{"nodes":"3168 3169 3170 3171 3168","wall":"no","building":"yes"},"232":{"nodes":"2361 2362 2363 2364 2361","building":"yes"},"474":{"nodes":"3172 3173 999 998 3172","wall":"no","building":"yes"},"233":{"nodes":"2365 2366 2367 2368 2365","wall":"no","building":"yes"},"475":{"nodes":"3174 3175 3176 3177 3174","building":"yes"},"234":{"nodes":"2369 2370 2371 2372 2369","building":"yes"},"476":{"nodes":"3178 3179 3180 3181 3178","building":"yes"},"235":{"nodes":"1396 1395 1394 2373 1396","wall":"no","building":"yes"},"477":{"nodes":"3182 3183 3184 3185 3182","wall":"no","building":"yes"},"236":{"nodes":"2374 2375 2376 2377 2374","building":"yes"},"478":{"nodes":"762 761 760 3186 762","building":"yes"},"237":{"nodes":"2378 2379 2380 2381 2378","building":"yes"},"479":{"nodes":"3187 3188 3189 3190 3187","wall":"no","building":"yes"},"238":{"nodes":"90 1518 1517 91 90","wall":"no","building":"yes"},"239":{"nodes":"2382 2383 2384 2385 2382","building":"yes"},"480":{"nodes":"3191 1252 1251 2708 3191","building":"yes"},"481":{"nodes":"3192 3193 3194 3195 3192","building":"yes"},"240":{"nodes":"2386 2387 2388 2389 2386","wall":"no","building":"yes"},"482":{"nodes":"3196 3197 3198 3199 3196","wall":"no","building":"yes"},"241":{"nodes":"1444 2390 2391 1445 1444","wall":"no","building":"yes"},"483":{"nodes":"625 624 3200 3201 625","building":"yes"},"242":{"nodes":"1193 1495 1195 1194 1193","building":"yes"},"484":{"nodes":"3202 3203 3204 3205 3202","building":"yes"},"243":{"nodes":"1768 1782 1781 2392 1768","wall":"no","building":"yes"},"485":{"nodes":"3206 3207 3208 3209 3206","building":"yes"},"244":{"nodes":"1547 2393 2394 1548 1547","building":"yes"},"486":{"nodes":"3210 3211 3212 3213 3210","building":"yes"},"245":{"nodes":"2395 2396 2397 2398 2395","building":"yes"},"487":{"nodes":"3214 3215 2114 2113 3214","building":"yes"},"246":{"nodes":"2399 2400 2401 2402 2399","building":"yes"},"488":{"nodes":"3216 3217 3218 3219 3216","building":"yes"},"247":{"nodes":"2403 2404 2405 2406 2403","building":"yes"},"489":{"nodes":"3220 3221 3222 3223 3220","building":"yes"},"248":{"nodes":"2407 2408 2409 2410 2407","wall":"no","building":"yes"},"249":{"nodes":"2411 2412 2413 2414 2411","building":"yes"},"490":{"nodes":"1486 1485 318 317 1486","building":"yes"},"491":{"nodes":"3224 3225 3226 3227 3224","building":"yes"},"250":{"nodes":"2010 2415 2416 1988 2010","building":"yes"},"492":{"nodes":"709 719 718 3228 709","wall":"no","building":"yes"},"251":{"nodes":"2417 2418 2419 2420 2417","building":"yes"},"493":{"nodes":"3229 3230 3231 3232 3229","wall":"no","building":"yes"},"252":{"nodes":"2421 2422 2423 2424 2421","building":"yes"},"494":{"nodes":"3233 3234 3235 3236 3233","wall":"no","building":"yes"},"253":{"nodes":"2425 2426 2427 2428 2425","building":"yes"},"495":{"nodes":"3237 3238 3239 3240 3237","wall":"no","building":"yes"},"254":{"nodes":"2429 2430 2431 2432 2429","building":"yes"},"496":{"nodes":"3241 3242 3243 3244 3241","building":"yes"},"255":{"nodes":"2433 2434 2435 2436 2433","building":"yes"},"497":{"nodes":"3245 3246 3247 3248 3245","building":"yes"},"256":{"nodes":"2437 2438 2439 2440 2437","wall":"no","building":"yes"},"498":{"nodes":"3249 3250 3251 3252 3249","building":"yes"},"257":{"nodes":"1501 2441 2442 1489 1501","wall":"no","building":"yes"},"499":{"nodes":"3253 3254 3255 3256 3253","building":"yes"},"258":{"nodes":"1508 1507 485 495 1508","building":"yes"},"259":{"nodes":"2443 2444 2445 2446 2443","wall":"no","building":"yes"},"260":{"nodes":"2447 2448 2449 2450 2447","wall":"no","building":"yes"},"261":{"nodes":"2451 2452 2453 2454 2451","building":"yes"},"262":{"nodes":"2455 2456 2457 2458 2455","building":"yes"},"263":{"nodes":"2459 2460 2461 2462 2459","building":"yes"},"264":{"nodes":"2463 2464 2465 2466 2463","building":"yes"},"265":{"nodes":"2054 2053 2467 2468 2054","building":"yes"},"266":{"nodes":"2469 94 93 2470 2469","building":"yes"},"267":{"nodes":"2471 2472 1287 1286 2471","wall":"no","building":"yes"},"268":{"nodes":"2473 2474 2475 2476 2473","building":"yes"},"269":{"nodes":"496 506 51 50 496","wall":"no","building":"yes"},"270":{"nodes":"2477 2478 1128 1127 2477","building":"yes"},"271":{"nodes":"2479 2480 2481 2482 2479","building":"yes"},"272":{"nodes":"2483 2484 2485 2486 2483","wall":"no","building":"yes"},"273":{"nodes":"2487 2488 2489 2490 2487","building":"yes"},"274":{"nodes":"2491 2492 2493 2494 2491","building":"yes"},"275":{"nodes":"2495 2496 2497 2498 2495","wall":"no","building":"yes"},"276":{"nodes":"2499 2500 2501 2502 2499","building":"yes"},"277":{"nodes":"2503 2504 2505 2506 2503","building":"yes"},"278":{"nodes":"2507 2508 2509 2510 2507","wall":"no","building":"yes"},"279":{"nodes":"2511 2512 2513 2514 2511","building":"yes"},"280":{"nodes":"2515 2516 2517 2518 2515","building":"yes"},"281":{"nodes":"2519 2520 2521 2522 2519","building":"yes"},"282":{"nodes":"2523 2524 2525 2526 2523","building":"yes"},"283":{"nodes":"2527 2528 2529 2530 2527","building":"yes"},"284":{"nodes":"2531 25 24 2532 2531","wall":"no","building":"yes"},"285":{"nodes":"2533 2534 2535 2536 2533","building":"yes"},"286":{"nodes":"2537 2538 2539 2540 2537","building":"yes"},"287":{"nodes":"884 895 716 715 884","building":"yes"},"288":{"nodes":"95 2541 2542 96 95","building":"yes"},"289":{"nodes":"2543 2544 2545 2546 2543","building":"yes"},"290":{"nodes":"2547 2548 2549 2550 2547","building":"yes"},"291":{"nodes":"2551 2552 2553 2554 2551","wall":"no","building":"yes"},"292":{"nodes":"2555 2556 2557 2558 2555","building":"yes"},"293":{"nodes":"2559 2560 2561 2562 2559","building":"yes"},"294":{"nodes":"2563 2564 2565 2566 2563","building":"yes"},"295":{"nodes":"2567 760 770 2568 2567","building":"yes"},"296":{"nodes":"1328 2569 2570 1329 1328","wall":"no","building":"yes"},"297":{"nodes":"2571 2572 2573 2574 2571","building":"yes"},"298":{"nodes":"2575 2576 2577 2578 2575","building":"yes"},"299":{"nodes":"2579 2580 2581 2582 2579","wall":"no","building":"yes"},"900":{"nodes":"4699 4700 4701 4702 4703 4704 4705 4699","building":"yes"},"901":{"nodes":"4706 4707 4708 4709 4710 4711 4712 4706","building":"yes"},"902":{"nodes":"2860 4713 3952 3951 4714 4715 2861 2860","building":"yes"},"903":{"nodes":"4716 4717 4718 4719 4720 4721 4722 4716","building":"yes"},"904":{"nodes":"1386 4723 4724 4725 4726 4727 1387 1386","building":"yes"},"905":{"nodes":"3930 3932 4728 4729 3673 3672 4730 3930","building":"yes"},"906":{"nodes":"4731 4732 2676 2675 4733 4734 4735 4731","building":"yes"},"907":{"nodes":"60 69 4264 4263 4262 4261 4736 60","building":"yes"},"908":{"nodes":"4737 4738 4739 4740 4741 4742 4743 4737","building":"yes"},"909":{"nodes":"3227 3226 2067 2066 2065 2064 4744 3227","building":"yes"},"910":{"nodes":"3842 4745 4746 4747 4748 4749 3843 3842","building":"yes"},"911":{"nodes":"4750 4751 4752 4753 4754 4755 4756 4750","building":"yes"},"912":{"nodes":"1154 3836 3838 1158 1157 1156 1155 1154","building":"yes"},"913":{"nodes":"3327 4757 4758 646 656 655 654 3327","building":"yes"},"914":{"nodes":"4563 4759 3697 3696 3541 3540 4560 4563","building":"yes"},"915":{"nodes":"4760 2173 2197 2196 2195 1414 1413 4760","building":"yes"},"916":{"nodes":"3539 4761 4762 4562 4561 4560 3540 3539","building":"yes"},"917":{"nodes":"4513 4763 4764 4765 4766 4767 4508 4513","building":"yes"},"918":{"nodes":"979 4768 4769 4770 4771 981 980 979","building":"yes"},"919":{"nodes":"4772 4773 4774 4775 4776 4777 4778 4772","building":"yes"},"1110":{"nodes":"1209 1208 1207 1206 1205 1494 1493 1492 1491 1209","building":"yes"},"1107":{"nodes":"5479 5484 4656 4661 4660 5582 5583 5584 5585 5479","building":"yes"},"1106":{"nodes":"3801 5576 5577 5578 5579 5580 5581 3798 3802 3801","building":"yes"},"1105":{"nodes":"273 282 5574 1560 1559 1558 4217 4216 5575 273","building":"yes"},"1104":{"nodes":"3887 461 460 1510 1509 1508 495 494 493 3887","building":"yes"},"1103":{"nodes":"389 5569 5570 5571 5572 5573 392 391 390 389","building":"yes"},"1102":{"nodes":"5565 5566 3351 3350 2222 2221 4448 5567 5568 5565","building":"yes"},"1101":{"nodes":"3142 3145 3144 5563 5564 3142","building":"yes"},"920":{"nodes":"4779 4780 2311 2310 4781 3734 3733 4779","building":"yes"},"1100":{"nodes":"739 738 2238 2237 2720 5561 3702 3701 5562 739","building":"yes"},"921":{"nodes":"4504 4782 4783 4784 4184 4183 4505 4504","building":"yes"},"922":{"nodes":"4785 4786 4787 256 255 254 253 4785","building":"yes"},"923":{"nodes":"3787 4788 4789 3663 3662 4790 3788 3787","building":"yes"},"924":{"nodes":"3041 2061 2700 4791 3224 3227 4744 3041","wall":"no","building":"yes"},"925":{"nodes":"4792 4793 899 898 897 896 4794 4792","building":"yes"},"926":{"nodes":"4795 4796 4797 2771 2770 4798 4799 4795","building":"yes"},"927":{"nodes":"418 4800 4801 122 121 420 419 418","building":"yes"},"1109":{"nodes":"5588 5589 5590 5591 5592 5593 453","building":"yes"},"928":{"nodes":"2185 4802 4803 4804 4805 2187 2186 2185","building":"yes"},"1108":{"nodes":"2586 2585 5586 4000 695 694 693 692 5587 2586","building":"yes"},"929":{"nodes":"4213 4806 4807 4808 3091 3090 4214 4213","wall":"no","building":"yes"},"1116":{"nodes":"1250 1249 5612 5613 5614 5615 5616 5617 2707 1250","building":"yes"},"1115":{"nodes":"1719 5609 5610 5611 3411 3410 5238 1721 1720 1719","wall":"no","building":"yes"},"1114":{"nodes":"1930 1929 1928 4082 4081 5605 5606 5607 5608 1930","building":"yes"},"1113":{"nodes":"4756 5598 5599 5600 5601 5602 5603 5604 4750 4756","building":"yes"},"930":{"nodes":"4809 4810 4707 4706 4811 4812 4813 4809","building":"yes"},"1112":{"nodes":"5594 5595 5596 3925 3929 5378 5377 5376 5597 5594","building":"yes"},"931":{"nodes":"4814 4815 4816 4817 4818 4819 4820 4814","building":"yes"},"1111":{"nodes":"601 600 599 598 866 865 864 4948 4947 601","building":"yes"},"932":{"nodes":"359 358 4821 4822 4823 4824 4825 359","building":"yes"},"933":{"nodes":"4826 4827 1539 1538 4512 4511 4828 4826","building":"yes"},"934":{"nodes":"1606 2694 4829 2833 1609 1608 1607 1606","building":"yes"},"935":{"nodes":"4769 4830 4831 4832 4833 4771 4770 4769","building":"yes"},"936":{"nodes":"4834 4835 4836 4837 2747 29 28 4834","building":"yes"},"937":{"nodes":"4838 4839 4840 4841 4842 4843 4844 4838","building":"yes"},"938":{"nodes":"4131 4133 556 555 554 553 4845 4131","wall":"no","building":"yes"},"939":{"nodes":"3182 1581 1580 1579 1096 1095 3183 3182","building":"yes"},"940":{"nodes":"4424 4846 4847 3814 3813 4848 4425 4424","building":"yes"},"941":{"nodes":"3762 3764 4849 4850 4851 2444 2443 3762","building":"yes"},"700":{"nodes":"3699 3895 3896 3897 3700 3699","wall":"no","building":"yes"},"942":{"nodes":"4852 4853 4404 4409 4408 4176 4175 4852","building":"yes"},"701":{"nodes":"3237 3240 3898 3899 3900 3237","building":"yes"},"943":{"nodes":"4854 4855 4856 4857 4858 2955 2954 4854","wall":"no","building":"yes"},"702":{"nodes":"732 3901 3902 734 733 732","building":"yes"},"944":{"nodes":"1503 2497 2496 3888 1506 1505 1504 1503","building":"yes"},"703":{"nodes":"3903 3904 3905 3906 3907 3903","wall":"no","building":"yes"},"945":{"nodes":"2695 4859 4860 4861 4862 181 180 2695","building":"yes"},"704":{"nodes":"3908 3909 3910 3911 3912 3908","wall":"no","building":"yes"},"946":{"nodes":"3371 4863 303 312 409 408 3372 3371","building":"yes"},"705":{"nodes":"3913 3914 3915 3916 3917 3913","wall":"no","building":"yes"},"947":{"nodes":"4864 4373 4378 4865 4866 4867 4868 4869 4870 4864","building":"yes"},"706":{"nodes":"3219 3918 3919 3920 3921 3219","building":"yes"},"948":{"nodes":"4809 4871 4872 4873 4874 4875 4810 4809","building":"yes"},"707":{"nodes":"3922 1046 1045 3923 3924 3922","wall":"no","building":"yes"},"949":{"nodes":"4174 4173 4876 4877 4878 4879 4880 4174","building":"yes"},"708":{"nodes":"3925 3926 3927 3928 3929 3925","building":"yes"},"709":{"nodes":"1388 2469 2470 1390 1389 1388","building":"yes"},"950":{"nodes":"4881 4882 4883 173 182 4884 4885 4881","building":"yes"},"951":{"nodes":"4564 4569 4886 4887 4888 4889 4890 4564","building":"yes"},"710":{"nodes":"3930 3931 637 636 3932 3930","wall":"no","building":"yes"},"952":{"nodes":"4891 2773 2776 4892 4893 4894 4895 4891","building":"yes"},"711":{"nodes":"3933 3934 3935 3936 3937 3933","building":"yes"},"953":{"nodes":"4896 4897 4898 2491 2494 4899 4900 4896","building":"yes"},"712":{"nodes":"1022 1031 3938 1027 1026 1022","wall":"no","building":"yes"},"954":{"nodes":"4901 53 52 51 506 505 4902 4901","building":"yes"},"713":{"nodes":"3659 3661 3939 3940 3941 3659","building":"yes"},"955":{"nodes":"2421 4903 4904 4905 4906 4907 2422 2421","building":"yes"},"714":{"nodes":"538 3942 3019 3018 539 538","building":"yes"},"956":{"nodes":"1931 4908 4909 4910 4911 1933 1932 1931","building":"yes"},"715":{"nodes":"2777 2780 3943 3944 3945 2777","building":"yes"},"957":{"nodes":"2239 2238 738 748 747 4177 4912 2239","building":"yes"},"716":{"nodes":"3946 3947 3948 3949 3950 3946","building":"yes"},"958":{"nodes":"4913 4914 4915 4916 4917 4918 4919 4913","building":"yes"},"717":{"nodes":"1501 1500 1499 1498 2441 1501","wall":"no","building":"yes"},"959":{"nodes":"3924 4920 4921 4922 4923 4924 4075 3924","building":"yes"},"718":{"nodes":"3502 3505 3951 3952 3953 3502","building":"yes"},"719":{"nodes":"3954 3955 3956 3957 3958 3954","building":"yes"},"960":{"nodes":"4925 4926 4927 4928 4929 4930 4931 4925","building":"yes"},"961":{"nodes":"4932 4933 4934 4196 4195 3432 3431 4932","building":"yes"},"720":{"nodes":"3557 3959 3960 2877 2876 3557","wall":"no","building":"yes"},"962":{"nodes":"4935 2959 2958 4723 1386 1385 4936 4935","building":"yes"},"721":{"nodes":"3961","building":"yes"},"963":{"nodes":"3682 4937 4938 4939 4940 4941 3683 3682","building":"yes"},"722":{"nodes":"3962 3963 3964 3965 3966 3962","building":"yes"},"964":{"nodes":"3733 3732 3731 1913 4942 4943 4779 3733","building":"yes"},"723":{"nodes":"3967 3968 3969 3513 3512 3967","building":"yes"},"965":{"nodes":"4410 4413 3935 3934 4944 4945 4946 4410","wall":"no","building":"yes"},"724":{"nodes":"3970 3971 3972 3973 3974 3970","wall":"no","building":"yes"},"966":{"nodes":"3887 493 492 601 4947 4948 3885 3887","building":"yes"},"725":{"nodes":"3975 3976 3977 3978 3979 3975","building":"yes"},"967":{"nodes":"3698 4949 4701 4700 4950 3895 3699 3698","building":"yes"},"726":{"nodes":"3864 3980 3710 3981 3865 3864","wall":"no","building":"yes"},"968":{"nodes":"3577 393 402 401 1566 1565 1564 1563 3577","building":"yes"},"727":{"nodes":"3982 3983 3984 2306 2305 3982","building":"yes"},"969":{"nodes":"4951 4952 4953 659 658 4954 4955 4956 4951","building":"yes"},"728":{"nodes":"3985 3986 1889 1908 3987 3985","wall":"no","building":"yes"},"729":{"nodes":"3831 518 279 278 3832 3831","wall":"no","building":"yes"},"970":{"nodes":"2675 622 621 620 619 4957 4958 4733 2675","building":"yes"},"971":{"nodes":"3924 3923 4959 4960 4961 482 481 4920 3924","building":"yes"},"730":{"nodes":"3988 3989 3628 3627 3990 3988","wall":"no","building":"yes"},"972":{"nodes":"1149 1148 1147 1146 1145 2229 2228 4962 1149","building":"yes"},"731":{"nodes":"3991 743 742 741 3992 3991","wall":"no","building":"yes"},"973":{"nodes":"2507 4963 4964 4965 4966 4967 4968 2508 2507","building":"yes"},"732":{"nodes":"3993 3994 902 901 900 3993","building":"yes"},"974":{"nodes":"4969 4814 4820 4819 4970 4971 4972 4973 4969","building":"yes"},"733":{"nodes":"3995 3996 3997 3998 3999 3995","building":"yes"},"975":{"nodes":"1139 4974 3919 3918 4975 4976 4977 1140 1139","building":"yes"},"734":{"nodes":"695 4000 4001 1873 696 695","building":"yes"},"976":{"nodes":"4978 4979 4980 4981 4982 4983 4984 4985 4978","building":"yes"},"735":{"nodes":"3795 3797 4002 4003 4004 3795","building":"yes"},"977":{"nodes":"4986 4987 4988 4989 4990 4991 4992 4993 4986","building":"yes"},"736":{"nodes":"4005 1700 1699 1698 4006 4005","building":"yes"},"978":{"nodes":"4994 4995 4996 4997 3634 3633 4998 4999 4994","building":"yes"},"737":{"nodes":"2255 3356 3359 2355 2256 2255","building":"yes"},"979":{"nodes":"3970 3974 4913 4919 4918 5000 5001 5002 3970","building":"yes"},"738":{"nodes":"3054 3057 4007 4008 4009 3054","building":"yes"},"739":{"nodes":"4010 4011 3830 441 440 4010","building":"yes"},"980":{"nodes":"3813 3817 3816 47 46 4545 4544 4848 3813","building":"yes"},"981":{"nodes":"5003 5004 5005 5006 5007 5008 5009 5010 5003","building":"yes"},"740":{"nodes":"4012 1684 1683 1682 1681 4012","wall":"no","building":"yes"},"982":{"nodes":"5011 5012 5013 5014 5015 3460 3463 5016 5011","building":"yes"},"741":{"nodes":"793 1777 1776 795 794 793","wall":"no","building":"yes"},"983":{"nodes":"4792 4794 2981 2984 5017 4353 4352 4351 4792","building":"yes"},"500":{"nodes":"3257 3258 3259 3260 3257","wall":"no","building":"yes"},"742":{"nodes":"3987 1908 1907 1906 4013 3987","building":"yes"},"984":{"nodes":"4935 4936 1385 1384 2603 2602 5018 5019 4935","wall":"no","building":"yes"},"501":{"nodes":"3261 3262 3263 3264 3261","wall":"no","building":"yes"},"743":{"source:heritage":"data.gouv.fr, Ministère de la Culture - 2016","amenity":"place_of_worship","ref:mhs":"PA00112925","heritage":"3","heritage:operator":"mhs","building":"church","religion":"christian","denomination":"catholic","nodes":"4014 4015 4016 4017 4018 4019 4020 4021 4022 4023 4024 4025 4026 4027 4028 4029 4030 4031 4032 4033 4034 4035 4036 4037 4038 4039 4040 4041 4042 4043 4044 4045 4046 4047 4048 4049 4050 4051 4052 4053 4054 4055 4056 4057 4058 4059 4060 4061 4062 4063 4064 4065 4066 4067 4068 4069 4070 4014","name":"Église Saint-Jean-Baptiste","wikidata":"Q22965275","start_date":"C15","mhs:inscription_date":"1927-02-22"},"985":{"nodes":"5020 5021 4786 4785 5022 262 261 2801 5020","building":"yes"},"502":{"nodes":"1398 1397 3265 3266 1398","wall":"no","building":"yes"},"744":{"nodes":"1812 4071 4072 2904 1814 1813 1812","building":"yes"},"986":{"nodes":"5023 5024 5023","building":"yes"},"503":{"nodes":"3267 3268 3269 3270 3267","building":"yes"},"745":{"nodes":"3766 4073 4074 3903 3907 3767 3766","building":"yes"},"987":{"nodes":"2072 2071 2070 2069 787 786 5025 5026 2072","building":"yes"},"504":{"nodes":"3271 1035 1034 3272 3271","building":"yes"},"746":{"nodes":"3922 3924 4075 4076 4077 4078 3922","building":"yes"},"988":{"nodes":"5027 5028 5029 5030 5031 5032 5033 5034 5027","building":"yes"},"505":{"nodes":"3273 3274 3275 3276 3273","wall":"no","building":"yes"},"747":{"nodes":"1927 4079 4080 4081 4082 1928 1927","building":"yes"},"989":{"nodes":"413 422 5035 5036 5037 5038 5039 5040 413","building":"yes"},"506":{"nodes":"3277 3278 3279 3280 3277","building":"yes"},"748":{"nodes":"4083 4084 4085 2246 2249 4086 4083","building":"yes"},"507":{"nodes":"3281 3282 3283 3284 3281","building":"yes"},"749":{"nodes":"4087 4088 4089 4090 4091 4092 4087","building":"yes"},"508":{"nodes":"3285 3286 3287 3288 3285","wall":"no","building":"yes"},"509":{"nodes":"3289 3290 3291 3292 3289","wall":"no","building":"yes"},"990":{"nodes":"5041 5042 5043 5044 5045 5046 5047 5048 5041","building":"yes"},"991":{"nodes":"3648 3652 5049 5050 5051 5052 5053 5054 3648","building":"yes"},"750":{"nodes":"4012 4093 4094 4095 1685 1684 4012","building":"yes"},"992":{"nodes":"4855 4854 1199 1198 4406 4405 5055 5056 4855","building":"yes"},"751":{"nodes":"3859 3863 3862 4096 4097 4098 3859","wall":"no","building":"yes"},"993":{"nodes":"4731 5057 5058 5059 5060 5061 5062 4732 4731","building":"yes"},"510":{"nodes":"3293 3294 3295 3296 3293","building":"yes"},"752":{"nodes":"4099 4100 4101 4102 4103 4104 4099","building":"yes"},"994":{"nodes":"3988 3990 1030 1029 4157 4156 5063 5064 3988","building":"yes"},"511":{"nodes":"3297 3298 3299 3300 3297","building":"yes"},"753":{"nodes":"4105 4106 4107 4108 4109 4110 4105","building":"yes"},"995":{"nodes":"5065 5066 5067 5068 5069 5070 5071 5072 5065","building":"yes"},"512":{"nodes":"3301 3302 3303 3304 3301","building":"yes"},"754":{"nodes":"3890 3908 3912 4111 4112 3891 3890","building":"yes"},"996":{"nodes":"3467 3837 5057 4731 4735 4946 4945 3464 3467","wall":"no","building":"yes"},"513":{"nodes":"3305 3306 3307 3308 3305","building":"yes"},"755":{"nodes":"4113 4114 4115 4116 4117 4118 4113","building":"yes"},"997":{"nodes":"4237 3189 3188 4158 949 948 5073 5074 4237","building":"yes"},"514":{"nodes":"3309 3310 3311 3312 3309","building":"yes"},"756":{"nodes":"4119 4120 4121 4122 4123 4124 4119","building":"yes"},"998":{"nodes":"5075 537 536 535 534 533 5076 5077 5075","building":"yes"},"515":{"nodes":"3313 883 882 3314 3313","building":"yes"},"757":{"nodes":"4125 4126 4127 4128 4129 4130 4125","building":"yes"},"999":{"nodes":"5078 5079 5080 5081 5082 3399 3400 5083 5078","building":"yes"},"516":{"nodes":"3315 3316 3317 3318 3315","building":"yes"},"758":{"nodes":"4131 3204 3203 3717 4132 4133 4131","building":"yes"},"517":{"nodes":"3319 3320 3321 3322 3319","building":"yes"},"759":{"nodes":"3768 3767 3907 3906 4134 4135 3768","wall":"no","building":"yes"},"518":{"nodes":"3323 3324 3325 3326 3323","building":"yes"},"519":{"nodes":"3327 654 653 3328 3327","wall":"no","building":"yes"},"760":{"nodes":"2437 2440 4136 4137 4138 4139 2437","building":"yes"},"761":{"nodes":"2859 2862 3110 3111 4140 4141 2859","building":"yes"},"520":{"nodes":"3076 815 814 3329 3076","wall":"no","building":"yes"},"762":{"nodes":"4142 4143 4144 4145 4146 4147 4142","layer":"1","building":"yes"},"521":{"nodes":"3330 3331 3332 3333 3330","building":"yes"},"763":{"nodes":"3681 3680 3679 4148 4149 4150 3681","building":"yes"},"522":{"nodes":"3334 3335 3336 3337 3334","building":"yes"},"764":{"nodes":"4151 4152 4153 4154 2193 2192 4151","building":"yes"},"523":{"nodes":"3338 3339 3340 3341 3338","building":"yes"},"765":{"nodes":"3187 4155 4156 4157 4158 3188 3187","building":"yes"},"524":{"nodes":"3342 3343 3344 3345 3342","building":"yes"},"766":{"nodes":"4159 4160 4161 4162 4163 4164 4159","building":"yes"},"525":{"nodes":"3346 3347 3348 3349 3346","building":"yes"},"767":{"nodes":"4165 4166 4167 4168 2949 2948 4165","building":"yes"},"526":{"nodes":"3350 3351 311 310 3350","building":"yes"},"768":{"nodes":"2287 2286 4169 4170 4171 4172 2287","building":"yes"},"527":{"nodes":"3352 3353 3354 3355 3352","building":"yes"},"769":{"nodes":"4173 4174 818 817 4175 4176 4173","building":"yes"},"528":{"nodes":"3356 3357 3358 3359 3356","building":"yes"},"529":{"nodes":"2057 3360 3361 2058 2057","wall":"no","building":"yes"},"770":{"nodes":"4177 747 746 3821 4178 4179 4177","building":"yes"},"771":{"nodes":"956 1189 4180 3876 616 615 956","building":"yes"},"530":{"nodes":"609 3362 488 487 609","wall":"no","building":"yes"},"772":{"nodes":"4181 4182 4183 4184 4185 4186 4181","wall":"no","building":"yes"},"531":{"nodes":"3363 3364 3365 3366 3363","wall":"no","building":"yes"},"773":{"nodes":"985 984 983 3275 3274 4187 985","building":"yes"},"532":{"nodes":"3367 3368 3369 3370 3367","wall":"no","building":"yes"},"774":{"nodes":"4188 4189 4190 4191 4192 4193 4188","building":"yes"},"533":{"nodes":"3371 3372 408 407 3371","wall":"no","building":"yes"},"775":{"nodes":"4194 1836 1835 4195 4196 4197 4194","building":"yes"},"534":{"nodes":"3373 3374 3375 3376 3373","building":"yes"},"776":{"nodes":"4198 4199 4200 4201 4202 4203 4198","building":"yes"},"535":{"nodes":"3377 3378 3379 3380 3377","building":"yes"},"777":{"nodes":"3449 4204 4205 4206 4207 3450 3449","building":"yes"},"536":{"nodes":"3381 3382 3383 3384 3381","building":"yes"},"778":{"nodes":"1679 1678 1677 1676 4208 4209 1679","building":"yes"},"537":{"nodes":"3385 3386 3387 3388 3385","building":"yes"},"779":{"nodes":"4005 4210 4211 4212 1701 1700 4005","building":"yes"},"538":{"nodes":"3389 3390 3391 3392 3389","building":"yes"},"539":{"nodes":"3393 3394 3395 3396 3393","building":"yes"},"780":{"nodes":"4213 4214 4215 4216 4217 4218 4213","building":"yes"},"781":{"nodes":"4219 4220 4221 4222 2391 2390 4219","building":"yes"},"540":{"nodes":"3397 3398 3397","building":"yes"},"782":{"nodes":"1191 1201 1200 2915 1496 1192 1191","wall":"no","building":"yes"},"541":{"nodes":"3399 2575 2578 3400 3399","building":"yes"},"783":{"nodes":"4223 2052 2051 4224 4225 4226 4223","building":"yes"},"300":{"nodes":"2583 2584 2585 2586 2583","wall":"no","building":"yes"},"542":{"nodes":"3401 3402 3403 3404 3401","building":"yes"},"784":{"nodes":"3538 3541 3696 3695 4227 4228 3538","building":"yes"},"301":{"nodes":"2587 2588 2589 2590 2587","wall":"no","building":"yes"},"543":{"nodes":"3405 3406 3407 3408 3405","building":"yes"},"785":{"nodes":"3821 3823 3822 4229 4230 4178 3821","building":"yes"},"302":{"nodes":"937 936 2591 2592 937","wall":"no","building":"yes"},"544":{"nodes":"3409 3410 3411 3412 3409","wall":"no","building":"yes"},"786":{"nodes":"4231 4232 4233 4234 4235 4236 4231","building":"yes"},"303":{"nodes":"2593 2594 2595 2596 2593","building":"yes"},"545":{"nodes":"1317 1316 1315 1314 1317","wall":"no","building":"yes"},"787":{"nodes":"3190 3189 4237 4238 4239 4240 3190","building":"yes"},"304":{"nodes":"2568 770 769 2597 2568","wall":"no","building":"yes"},"546":{"nodes":"2903 3413 1816 1815 2903","building":"yes"},"788":{"nodes":"4241 4242 4243 4244 4245 4246 4241","building":"yes"},"305":{"nodes":"2598 2599 2600 2601 2598","building":"yes"},"547":{"nodes":"2263 3414 3415 2264 2263","building":"yes"},"789":{"nodes":"344 4247 4248 4249 4250 345 344","building":"yes"},"306":{"nodes":"1379 1169 2602 2603 1379","wall":"no","building":"yes"},"548":{"nodes":"468 467 3416 3417 468","building":"yes"},"307":{"nodes":"2604 2605 2606 2607 2604","building":"yes"},"549":{"nodes":"3418 3419 3420 3421 3418","building":"yes"},"308":{"nodes":"2608 2609 2610 2611 2608","building":"yes"},"309":{"nodes":"1532 1618 1534 1533 1532","wall":"no","building":"yes"},"790":{"nodes":"3792 3794 4251 4252 4253 4254 3792","building":"yes"},"791":{"nodes":"4255 4256 4257 4258 4259 4260 4255","building":"yes"},"550":{"nodes":"3422 3423 3424 3425 3422","building":"yes"},"792":{"nodes":"4261 4262 4263 4264 4265 4266 4261","building":"yes"},"551":{"nodes":"2011 2033 3426 3427 2011","building":"yes"},"793":{"nodes":"4267 4268 4269 4270 4271 4272 4267","building":"yes"},"310":{"nodes":"2612 2613 2614 2615 2612","building":"yes"},"552":{"nodes":"1401 1400 1399 3428 1401","wall":"no","building":"yes"},"794":{"nodes":"2729 2732 4273 4274 4275 4276 2729","wall":"no","building":"yes"},"311":{"nodes":"934 933 932 2616 934","wall":"no","building":"yes"},"553":{"nodes":"2425 3429 3430 2426 2425","wall":"no","building":"yes"},"795":{"nodes":"4277 4278 4279 4280 4281 4282 4277","building":"yes"},"312":{"nodes":"2617 2618 2619 2620 2617","building":"yes"},"554":{"nodes":"3431 3432 3433 3434 3431","building":"yes"},"796":{"nodes":"3362 3876 4180 1189 489 488 3362","building":"yes"},"313":{"nodes":"678 677 2621 2622 678","wall":"no","building":"yes"},"555":{"nodes":"3435 3436 3437 3438 3435","building":"yes"},"797":{"nodes":"233 242 241 4283 2217 2216 233","building":"yes"},"314":{"nodes":"2623 2624 2625 2626 2623","building":"yes"},"556":{"nodes":"974 3439 3440 975 974","building":"yes"},"798":{"nodes":"549 4284 4285 4286 551 550 549","building":"yes"},"315":{"nodes":"2627 2628 2629 2630 2627","building":"yes"},"557":{"nodes":"3441 3442 3443 3444 3441","building":"yes"},"799":{"nodes":"2012 4287 4288 4289 4290 2013 2012","building":"yes"},"316":{"nodes":"2631 2632 2633 2634 2631","building":"yes"},"558":{"nodes":"3445 86 85 3446 3445","wall":"no","building":"yes"},"317":{"nodes":"2635 2636 2637 2635","building":"yes"},"559":{"nodes":"1475 1474 1654 1653 1475","building":"yes"},"318":{"nodes":"2638 2639 2640 2641 2638","building":"yes"},"319":{"nodes":"1063 1062 1248 1247 1063","building":"yes"},"560":{"nodes":"2206 2205 3447 3448 2206","building":"yes"},"561":{"nodes":"3449 3450 3451 3452 3449","building":"yes"},"320":{"nodes":"2642 2643 2644 2645 2642","wall":"no","building":"yes"},"562":{"nodes":"3453 3454 3455 3456 3453","building":"yes"},"321":{"nodes":"2646 2647 2648 2649 2646","building":"yes"},"563":{"nodes":"3457 2395 3458 3459 3457","building":"yes"},"322":{"nodes":"2650 2651 2652 2653 2650","building":"yes"},"564":{"nodes":"3460 3461 3462 3463 3460","building":"yes"},"323":{"nodes":"2654 2655 2656 2657 2654","building":"yes"},"565":{"nodes":"2285 2288 55 54 2285","wall":"no","building":"yes"},"324":{"nodes":"2658 2659 2660 2661 2658","building":"yes"},"566":{"nodes":"3464 3465 3466 3467 3464","building":"yes"},"325":{"nodes":"1510 460 459 2662 1510","building":"yes"},"567":{"nodes":"3468 3469 3470 3471 3468","wall":"no","building":"yes"},"326":{"nodes":"2663 2664 2665 2666 2663","building":"yes"},"568":{"nodes":"3472 3473 3474 3475 3472","wall":"no","building":"yes"},"327":{"nodes":"2667 2668 2669 2670 2667","building":"yes"},"569":{"nodes":"3476 3477 3478 3479 3476","building":"yes"},"328":{"nodes":"2671 2672 2673 2674 2671","building":"yes"},"329":{"nodes":"622 2675 2676 623 622","wall":"no","building":"yes"},"570":{"nodes":"3480 3481 3482 3483 3480","building":"yes"},"571":{"nodes":"812 3484 3485 813 812","wall":"no","building":"yes"},"330":{"nodes":"2677 2678 2679 2680 2677","wall":"no","building":"yes"},"572":{"nodes":"3486 3487 3488 3489 3486","building":"yes"},"331":{"nodes":"2681 2682 2683 2684 2681","building":"yes"},"573":{"nodes":"3490 3491 3492 3493 3490","wall":"no","building":"yes"},"332":{"nodes":"2685 2686 2687 2688 2685","wall":"no","building":"yes"},"574":{"nodes":"3494 379 378 3495 3494","wall":"no","building":"yes"},"333":{"nodes":"2689 2690 2691 2692 2689","building":"yes"},"575":{"nodes":"3496 3497 3498 3499 3496","building":"yes"},"334":{"nodes":"1605 2693 2694 1606 1605","building":"yes"},"576":{"nodes":"2883 2886 3500 3501 2883","building":"yes"},"335":{"nodes":"2695 180 179 2696 2695","wall":"no","building":"yes"},"577":{"nodes":"3502 3503 3504 3505 3502","building":"yes"},"336":{"nodes":"1891 1890 2697 2698 1891","building":"yes"},"578":{"nodes":"2936 2939 3506 3507 2936","building":"yes"},"337":{"nodes":"2699 2700 2061 2060 2699","wall":"no","building":"yes"},"579":{"nodes":"3508 3509 3510 3511 3508","building":"yes"},"338":{"nodes":"2701 2702 2703 2704 2701","building":"yes"},"339":{"nodes":"1187 2705 2706 1188 1187","wall":"no","building":"yes"},"580":{"nodes":"3367 3512 3513 3368 3367","building":"yes"},"581":{"nodes":"3514 3515 3516 3517 3514","building":"yes"},"340":{"nodes":"1250 2707 2708 1251 1250","wall":"no","building":"yes"},"582":{"nodes":"2642 2645 3518 3519 2642","building":"yes"},"341":{"nodes":"560 2709 2710 561 560","building":"yes"},"583":{"nodes":"3520 3521 3522 3523 3520","building":"yes"},"100":{"nodes":"920 921 922 923 924 925 926 927 928 929 930 931 920","building":"yes"},"342":{"nodes":"2711 2712 2713 2714 2711","building":"yes"},"584":{"nodes":"3468 3524 3525 3469 3468","building":"yes"},"101":{"nodes":"932 933 934 935 936 937 938 939 940 941 942 943 932","building":"yes"},"343":{"nodes":"2715 2716 2717 2718 2715","building":"yes"},"585":{"nodes":"3526 3527 3528 3529 3526","building":"yes"},"102":{"nodes":"944 945 946 947 948 949 950 951 952 953 954 955 944","building":"yes"},"344":{"nodes":"2236 2719 2720 2237 2236","building":"yes"},"586":{"nodes":"3530 3531 3532 3533 3530","building":"yes"},"103":{"nodes":"956 615 614 613 612 611 610 957 958 959 960 961 956","building":"yes"},"345":{"nodes":"2721 2722 2723 2724 2721","building":"yes"},"587":{"nodes":"3534 3535 3536 3537 3534","building":"yes"},"104":{"nodes":"962 963 964 965 966 967 968 969 970 971 972 973 962","building":"yes"},"346":{"nodes":"2725 2726 2727 2728 2725","building":"yes"},"588":{"nodes":"3538 3539 3540 3541 3538","wall":"no","building":"yes"},"105":{"nodes":"974 975 976 977 978 979 980 981 982 983 984 985 974","building":"yes"},"347":{"nodes":"2729 2730 2731 2732 2729","building":"yes"},"589":{"nodes":"1742 1586 1585 1743 1742","wall":"no","building":"yes"},"106":{"nodes":"986 987 988 989 990 991 992 993 994 995 996 997 986","building":"yes"},"348":{"nodes":"2733 2734 2735 2736 2733","building":"yes"},"107":{"nodes":"998 999 1000 1001 1002 1003 1004 1005 1006 1007 1008 1009 998","building":"yes"},"349":{"nodes":"2737 2738 2739 2740 2737","building":"yes"},"108":{"nodes":"1010 1011 1012 1013 1014 1015 1016 1017 1018 1019 1020 1021 1010","building":"yes"},"109":{"nodes":"1022 1023 1024 1025 1026 1027 1028 811 810 1029 1030 1031 1022","building":"yes"},"590":{"nodes":"1829 1828 1717 1716 1829","building":"yes"},"591":{"nodes":"1520 1519 3542 3543 1520","building":"yes"},"350":{"nodes":"266 2741 2742 267 266","building":"yes"},"592":{"nodes":"3544 3545 871 870 3544","wall":"no","building":"yes"},"351":{"nodes":"2743 2744 2745 2746 2743","building":"yes"},"593":{"nodes":"1695 3546 3547 3548 1695","building":"yes"},"110":{"nodes":"1032 1033 1034 1035 1036 1037 1038 1039 1040 1041 891 890 1032","building":"yes"},"352":{"nodes":"20 29 2747 2748 20","wall":"no","building":"yes"},"594":{"nodes":"3549 3550 3551 3552 3549","building":"yes"},"111":{"nodes":"474 1042 1043 1044 1045 1046 1047 1048 1049 1050 476 475 474","building":"yes"},"353":{"nodes":"2749 2750 2751 2752 2749","building":"yes"},"595":{"nodes":"3553 3554 3555 3556 3553","building":"yes"},"112":{"nodes":"1051 1052 1053 1054 1055 143 152 151 150 1056 1057 1058 1059 1051","building":"yes"},"354":{"nodes":"2753 2754 2755 2756 2753","building":"yes"},"596":{"nodes":"3557 2876 2875 3558 3557","building":"yes"},"113":{"nodes":"1060 1061 1062 1063 1064 1065 1066 1067 1068 1069 1070 1071 1072 1060","building":"yes"},"355":{"nodes":"2757 2758 2759 2760 2757","building":"yes"},"597":{"nodes":"3559 3560 3561 3562 3559","building":"yes"},"114":{"nodes":"1073 1074 1075 1076 1077 1078 1079 1080 1081 1082 1083 1084 1085 1073","building":"yes"},"356":{"nodes":"2761 2762 2763 2764 2761","building":"yes"},"598":{"nodes":"1341 1340 588 587 3563 1341","building":"yes"},"115":{"nodes":"1086 1087 1088 1089 1090 1091 1092 1093 1094 140 139 138 137 1086","building":"yes"},"357":{"nodes":"2765 2766 2767 2768 2765","wall":"no","building":"yes"},"599":{"nodes":"3564 3565 3566 3567 3568 3564","building":"yes"},"116":{"nodes":"1095 1096 1097 1098 1099 1100 1101 1102 1103 1104 1105 1106 1107 1095","building":"yes"},"358":{"nodes":"316 315 1488 1487 316","building":"yes"},"117":{"nodes":"1108 1109 1110 1111 1112 1113 1114 1115 1116 1117 1118 1119 1120 1108","building":"yes"},"359":{"nodes":"2769 2770 2771 2772 2769","building":"yes"},"118":{"nodes":"1121 1122 1123 1124 1102 1101 1125 1126 1127 1128 1129 1130 1131 1121","building":"yes"},"119":{"nodes":"698 708 705 704 1132 1133 1134 1135 1136 1137 1138 1139 1140 698","building":"yes"},"10":{"nodes":"10 11 12 13 14 15 16 17 18 19 10","building":"yes"},"11":{"nodes":"20 21 22 23 24 25 26 27 28 29 20","building":"yes"},"12":{"nodes":"30 31 32 33 34 35 36 37 38 39 30","building":"yes"},"13":{"nodes":"40 41 42 43 44 45 46 47 48 49 40","amenity":"townhall","name":"Mairie de Moulins-Engilbert","building":"public"},"14":{"nodes":"50 51 52 53 54 55 56 57 58 59 50","building":"yes"},"15":{"nodes":"60 61 62 63 64 65 66 67 68 69 60","building":"yes"},"16":{"nodes":"70 71 72 73 74 75 76 77 78 79 70","building":"yes"},"17":{"nodes":"40 80 81 82 83 84 85 86 42 41 40","building":"yes"},"18":{"nodes":"87 88 89 90 91 92 93 94 95 96 87","building":"yes"},"19":{"nodes":"97 98 99 100 101 102 103 104 105 106 97","building":"yes"},"360":{"nodes":"2773 2774 2775 2776 2773","building":"yes"},"361":{"nodes":"2777 2778 2779 2780 2777","wall":"no","building":"yes"},"120":{"nodes":"1141 1142 1143 1144 1145 1146 1147 1148 1149 1150 1151 1152 1153 1141","building":"yes"},"362":{"nodes":"891 1041 893 892 891","building":"yes"},"121":{"nodes":"1154 1155 1156 1157 1158 446 445 444 443 1159 1160 1161 1162 1154","building":"yes"},"363":{"nodes":"2781 2782 2783 2784 2781","building":"yes"},"122":{"nodes":"1163 162 161 1164 1165 1166 1167 1168 1169 1170 1171 1172 1173 1163","building":"yes"},"364":{"nodes":"2785 2786 2787 2788 2785","wall":"no","building":"yes"},"123":{"nodes":"1174 1175 1176 1177 1178 1179 1180 1181 1182 1183 1184 1185 1186 1174","building":"yes"},"365":{"nodes":"2789 2790 2791 2792 2789","building":"yes"},"124":{"nodes":"1187 1188 490 489 1189 956 961 960 959 958 607 606 1190 1187","building":"yes"},"366":{"nodes":"2793 2794 2795 2796 2793","building":"yes"},"125":{"nodes":"1191 1192 1193 1194 1195 1196 1197 1198 1199 1200 1201 1202 1203 1191","building":"yes"},"367":{"nodes":"2797 2798 2799 2800 2797","building":"yes"},"126":{"nodes":"676 686 685 684 1204 1205 1206 1207 1208 1209 1210 1211 1212 676","building":"yes"},"368":{"nodes":"2801 261 260 2802 2801","building":"yes"},"127":{"nodes":"1213 1214 1215 1216 1217 1218 1219 1220 1221 1222 1223 1224 1225 1213","building":"yes"},"369":{"nodes":"183 2803 185 184 183","wall":"no","building":"yes"},"128":{"nodes":"1226 1227 1228 1229 1230 1231 1232 1233 1234 1235 1236 1237 1238 1226","building":"yes"},"129":{"nodes":"1239 918 917 916 915 914 1240 1241 1242 1243 1244 1245 1246 1239","building":"yes"},"20":{"nodes":"107 108 109 110 111 112","building":"yes"},"21":{"nodes":"113 114 115 116 117 118 119 120 121 122 113","building":"yes"},"22":{"nodes":"123 124 125 126 127 128 129 130 131 132 123","building":"yes"},"23":{"nodes":"133 134 135 136 137 138 139 140 141 142 133","building":"yes"},"24":{"nodes":"143 144 145 146 147 148 149 150 151 152 143","building":"yes"},"25":{"nodes":"153 154 155 156 157 158 159 160 161 162 153","wall":"no","building":"yes"},"26":{"nodes":"163 164 165 166 167 168 169 170 171 172 163","building":"yes"},"27":{"nodes":"173 174 175 176 177 178 179 180 181 182 173","building":"yes"},"28":{"nodes":"183 184 185 186 187 188 189 190 191 192 183","building":"yes"},"29":{"nodes":"193 194 195 196 197 198 199 200 201 202 193","building":"yes"},"370":{"nodes":"2804 2805 2806 2807 2804","building":"yes"},"371":{"nodes":"2808 2809 2810 2811 2808","building":"yes"},"130":{"nodes":"1247 1248 1249 1250 1251 1252 1253 1254 1255 1256 1257 1258 1259 1247","building":"yes"},"372":{"nodes":"2812 2813 2814 2815 2812","wall":"no","building":"yes"},"131":{"nodes":"1260 1261 1262 1263 1264 1265 1266 1267 1268 1269 1270 1271 1272 1260","building":"yes"},"373":{"nodes":"1351 1364 1363 2816 1351","wall":"no","building":"yes"},"132":{"nodes":"1273 1274 1275 1276 1277 1278 1279 1280 1281 1282 1283 1284 1285 1273","building":"yes"},"374":{"nodes":"2817 2818 2819 2820 2817","building":"yes"},"133":{"nodes":"1286 1287 1288 1289 1290 1291 1292 1293 1294 1295 1296 1297 1298 1299 1286","building":"yes"},"375":{"nodes":"2821 2822 2823 2824 2821","building":"yes"},"134":{"nodes":"1300 1301 1302 1303 1304 1305 1306 1307 1308 1309 1310 1311 1312 1313 1300","name":"Gymnase","sport":"multi","leisure":"pitch","building":"yes"},"376":{"nodes":"2825 2826 2827 2828 2825","building":"yes"},"135":{"nodes":"1314 1315 1316 1317 1318 1319 1320 1321 1322 1323 1324 1325 1326 1327 1314","building":"yes"},"377":{"nodes":"2829 2830 2831 2832 2829","building":"yes"},"136":{"nodes":"1267 1328 1329 1330 1331 1332 1333 1334 1335 1336 1271 1270 1269 1268 1267","building":"yes"},"378":{"nodes":"2833 2834 1610 1609 2833","building":"yes"},"137":{"nodes":"1337 1338 1339 1340 1341 1342 1343 1344 1345 1346 1347 1348 1349 1350 1337","building":"yes"},"379":{"nodes":"2835 2836 2837 2838 2835","building":"yes"},"138":{"nodes":"1351 1352 1353 1354 1355 1356 1357 1358 1359 1360 1361 1362 1363 1364 1351","building":"yes"},"139":{"nodes":"1365 1366 1367 1368 1369 1370 1371 1372 1373 1374 1375 1376 1377 1378 1365","building":"yes"},"30":{"nodes":"203 204 205 206 207 208 209 210 211 212 203","building":"yes"},"31":{"nodes":"213 214 215 216 217 218 219 220 221 222 213","building":"yes"},"32":{"nodes":"223 224 225 226 227 228 229 230 231 232 223","building":"yes"},"33":{"nodes":"233 234 235 236 237 238 239 240 241 242 233","building":"yes"},"34":{"nodes":"243 244 245 246 247 248 249 250 251 252 243","building":"yes"},"35":{"nodes":"253 254 255 256 257 258 259 260 261 262 253","building":"yes"},"36":{"nodes":"263 264 265 266 267 268 269 270 271 272 263","building":"yes"},"37":{"nodes":"273 274 275 276 277 278 279 280 281 282 273","building":"yes"},"38":{"nodes":"283 284 285 286 287 288 289 290 291 292 283","building":"yes"},"39":{"nodes":"293 294 295 296 297 298 299 300 301 302 293","building":"yes"},"380":{"nodes":"2839 2840 2841 2842 2839","building":"yes"},"381":{"nodes":"2843 2844 2845 2846 2843","building":"yes"},"140":{"nodes":"1379 1380 1381 1382 1383 1384 1385 1386 1387 1388 1389 1390 1170 1169 1379","building":"yes"},"382":{"nodes":"2847 1847 1846 2848 2847","building":"yes"},"141":{"nodes":"1391 1003 1002 1001 1000 1225 1224 1223 1222 1221 1220 1219 1392 1393 1391","building":"yes"},"383":{"nodes":"2849 2850 753 752 2849","building":"yes"},"142":{"nodes":"1394 1395 1396 1397 1398 1399 1400 1401 1402 1403 1404 1405 1406 1407 1394","building":"yes"},"384":{"nodes":"2851 2852 2853 2854 2851","building":"yes"},"143":{"nodes":"1408 1409 1410 1411 1412 1413 1414 1415 1416 1417 1418 1419 1420 1421 1408","building":"yes"},"385":{"nodes":"2855 2856 2857 2858 2855","wall":"no","building":"yes"},"144":{"nodes":"1422 1423 1424 1425 1426 1427 1428 1429","building":"yes"},"386":{"nodes":"2859 2860 2861 2862 2859","wall":"no","building":"yes"},"145":{"nodes":"1430 1431 1432 1433 1434 1435 1436 1437 1438 1439 1440 1441 1442 1443 1430","building":"yes"},"387":{"nodes":"2863 2864 2865 2866 2863","building":"yes"},"146":{"nodes":"1444 1445 1446 1447 1448 1449 1450 1451 1452 1453 1454 1455 1456 1457 1458 1444","building":"yes"},"388":{"nodes":"2867 2868 2869 2870 2867","building":"yes"},"147":{"nodes":"1459 1460 1461 1462 1463 1464 1465 1466 1467 1468 1469 1470 1471 1472 1473 1459","building":"yes"},"389":{"nodes":"2871 2872 2873 2874 2871","wall":"no","building":"yes"},"148":{"nodes":"1474 1475 1476 1477 1478 1479 1480 1481 1482 1483 1484 1485 1486 1487 1488 1474","building":"yes"},"149":{"nodes":"1489 1490 1491 1492 1493 1494 1495 1193 1192 1496 1497 1498 1499 1500 1501 1489","building":"yes"},"40":{"nodes":"303 304 305 306 307 308 309 310 311 312 303","building":"yes"},"41":{"nodes":"313 314 315 316 317 318 319 320 321 322 313","building":"yes"},"42":{"nodes":"323 324 325 326 327 328 329 330 331 332 323","building":"yes"},"43":{"nodes":"333 334 335 336 337 338 339 340 341 342 333","building":"yes"},"44":{"nodes":"343 344 345 346 347 348 349 350 351 352 343","building":"yes"},"45":{"nodes":"353 354 355 356 357 358 359 360 361 362 353","building":"yes"},"46":{"nodes":"363 364 365 366 367 368 369 370 371 372 363","wall":"no","building":"yes"},"47":{"nodes":"373 374 375 376 377 378 379 380 381 382 373","building":"yes"},"48":{"nodes":"383 384 385 386 387 388 389 390 391 392 383","building":"yes"},"49":{"nodes":"393 394 395 396 397 398 399 400 401 402 393","building":"yes"},"390":{"nodes":"2875 2876 2877 2878 2875","building":"yes"},"391":{"nodes":"2879 2880 2881 2882 2879","building":"yes"},"150":{"nodes":"1502 1503 1504 1505 1506 1507 1508 1509 1510 1511 1512 1513 1514 1515 1516 1502","building":"yes"},"392":{"nodes":"2883 2884 2885 2886 2883","building":"yes"},"151":{"nodes":"1517 1518 1519 1520 1521 1522 1523 1524 1525 1526 1527 1528 1529 1530 1531 1517","building":"yes"},"393":{"nodes":"2887 2888 2889 2890 2887","wall":"no","building":"yes"},"152":{"nodes":"1532 1533 1534 1535 1536 1537 1538 1539 1540 1541 1542 1543 1544 1545 1546 1532","building":"yes"},"394":{"nodes":"2891 2892 2893 2894 2891","wall":"no","building":"yes"},"153":{"nodes":"1547 1548 1549 1550 1551 1552 1553 1554 1555 1556 1557 1558 1559 1560 1561 1547","building":"yes"},"395":{"nodes":"2895 2896 2897 2898 2895","building":"yes"},"154":{"nodes":"1562 1563 1564 1565 1566 1567 1568 1569 1570 1571 1572 1573 1574 1575 1576 1562","building":"yes"},"396":{"nodes":"2899 2900 2901 2902 2899","building":"yes"},"155":{"nodes":"1577 1578 1098 1097 1096 1579 1580 1581 1582 1583 1584 1585 1586 1587 1588 1577","building":"yes"},"397":{"nodes":"2903 1815 1814 2904 2903","building":"yes"},"156":{"nodes":"1589 1590 1591 1592 1593 1594 1595 1596 1597 1598 1599 1600 1601 1602 1603 1604 1589","building":"yes"},"398":{"nodes":"782 2905 2906 783 782","wall":"no","building":"yes"},"157":{"nodes":"207 206 205 1605 1606 1607 1608 1609 1610 1611 1612 1613 1614 1615 1616 1617 207","building":"yes"},"399":{"nodes":"2907 2908 2909 2910 2907","building":"yes"},"158":{"nodes":"1534 1618 1619 1620 1621 1622 1623 1624 1625 1626 790 789 788 1537 1536 1535 1534","building":"yes"},"159":{"nodes":"1627 1628 1629 1630 1631 1632 1633 1634 1635 1636 1637 1638 1639 1640 1074 1073 1627","building":"yes"},"50":{"nodes":"403 404 405 406 407 408 409 410 411 412 403","building":"yes"},"51":{"nodes":"413 414 415 416 417 418 419 420 421 422 413","building":"yes"},"52":{"nodes":"423 424 425 426 427 428 429 430 431 432 423","building":"yes"},"53":{"nodes":"433 434 435 436 437 438 439 440 441 442 433","building":"yes"},"54":{"nodes":"443 444 445 446 447 448 449 450 451 452 443","building":"yes"},"55":{"nodes":"453","building":"yes"},"56":{"nodes":"454 455 456 457 458 459 460 461 462 463 454","building":"yes"},"57":{"nodes":"464 465 466 467 468 469 470 471 472 473 464","building":"yes"},"58":{"nodes":"474 475 476 477 478 479 480 481 482 483 484 474","building":"yes"},"59":{"nodes":"485 486 487 488 489 490 491 492 493 494 495 485","building":"yes"},"160":{"nodes":"1641 1642 1643 1644 1645 1646 1647 1648 1649 1650 1651 1652 1653 1654 1655 1656 1641","building":"yes"},"161":{"nodes":"1657 1658 1659 1660 291 290 1661 1662 1663 1664 1665 1666 1667 1668 1669 1670 1671 1657","building":"yes"},"162":{"nodes":"1672 1673 1674 1675 1676 1677 1678 1679 1680 1681 1682 1683 1684 1685 1061 1060 1686 1672","building":"yes"},"163":{"nodes":"1687 1688 1689 1690 1691 1692 1693 1694 1695 1696 1697 1698 1699 1700 1701 45 44 1687","building":"yes"},"164":{"nodes":"1702 1703 1704 1705 1706 1707 1708 1709 1710 1711 1712 1713 1714 1715 1716 1717 1718 1702","building":"yes"},"165":{"nodes":"1719 1720 1721 1722 1723 1138 1137 1136 1133 1132 1338 1337 1724 1725 1726 1727 1728 1719","building":"yes"},"166":{"nodes":"1729 1730 1731 1732 1733 1281 1280 1276 1275 1734 1735 1736 1737 1738 1739 1740 1741 1729","building":"yes"},"167":{"nodes":"1742 1743 1585 1584 1593 1592 1591 1590 1589 1744 1745 1746 1747 1578 1577 1748 1749 1742","building":"yes"},"168":{"nodes":"1750 1751 1752 1753 1754 1755 1756 1757 1758 1759 1760 1761 1762 1763 1764 1765 1766 1767 1750","building":"yes"},"169":{"nodes":"1768 1769 1770 1771 1772 1773 1774 1775 797 796 795 1776 1777 1778 1779 1780 1781 1782 1768","building":"yes"},"60":{"nodes":"496 497 498 499 500 501 502 503 504 505 506 496","building":"yes"},"61":{"nodes":"507 508 509 510 511 512 513 514 515 516 517 507","building":"yes"},"62":{"nodes":"518 519 520 521 522 523 524 525 526 280 279 518","building":"yes"},"63":{"nodes":"527 528 529 530 531 532 533 534 535 536 537 527","building":"yes"},"64":{"nodes":"538 539 540 541 542 543 544 545 546 547 548 538","building":"yes"},"65":{"nodes":"549 550 551 552 553 554 555 556 557 558 559 549","building":"yes"},"66":{"nodes":"560 561 562 563 564 565 566 567 568 569 570 560","building":"yes"},"67":{"nodes":"541 571 572 573 574 575 576 577 578 579 542 541","building":"yes"},"68":{"nodes":"580 581 512 511 510 509 582 583 584 585 586 580","building":"yes"},"69":{"nodes":"587 588 589 590 591 592 593 594 595 596 597 587","building":"yes"},"170":{"nodes":"1783 1784 1785 1786 1787 1788 1789 1790 1791 1792 1793 1794 1795 1796 1797 1798 1799 1800 1801 1783","building":"yes"},"171":{"nodes":"1802 1803 1804 1805 1806 1807 1808 1809 1810 1811 1812 1813 1814 1815 1816 1817 1818 1819 1820 1802","building":"yes"},"172":{"nodes":"247 1821 1822 1823 1824 1825 1826 1827 1828 1829 1830 1831 1832 1833 1834 251 250 249 248 247","building":"yes"},"173":{"nodes":"1835 1836 1837 1838 1839 1840 1841 1842 1843 1844 1845 1846 1847 1848 1849 1850 1851 1852 1853 1835","building":"yes"},"174":{"nodes":"1854 1855 1856 1857 1858 1859 1860 1861 1862 1863 1864 1865 1866 1867 1868 1869 1870 1871 1872 1854","building":"yes"},"175":{"nodes":"687 697 696 1873 1874 1875 1876 1877 1878 1879 1880 1881 1882 1883 1884 1885 1886 1887 1888 687","building":"yes"},"176":{"nodes":"1889 1890 1891 1892 1893 1894 1895 1896 1897 1898 1899 1900 1901 1902 1903 1904 1905 1906 1907 1908 1889","building":"yes"},"177":{"nodes":"1416 1415 1909 1910 1911 1912 1913 1914 1915 1916 1917 1918 1919 1920 1921 1922 1923 1924 1925 1926 1416","building":"yes"},"178":{"nodes":"1927 1928 1929 1930 1931 1932 1933 1934 1935 1936 1937 1938 1939 1940 1941 1942 1943 1944 1945 1946 1927","building":"yes"},"179":{"nodes":"1947 1948 1949 1950 1951 1952 1953 1954 1955 1956 1957 1958 1959 1960 1961 1962 1963 1964 1965 1966 1967 1968 1947","building":"yes"},"70":{"nodes":"598 599 600 601 602 603 604 605 606 607 608 598","building":"yes"},"71":{"nodes":"609 487 486 610 611 612 613 614 615 616 617 609","building":"yes"},"72":{"nodes":"618 619 620 621 622 623 624 625 626 627 628 618","building":"yes"},"73":{"nodes":"629 630 631 632 633 634 635 636 637 638 639 629","building":"yes"},"74":{"nodes":"398 640 641 642 643 644 645 464 473 400 399 398","building":"yes"},"75":{"nodes":"646 647 648 649 650 651 652 653 654 655 656 646","building":"yes"},"76":{"nodes":"657 658 659 660 661 662 663 664 665 666 667 657","building":"yes"},"77":{"nodes":"663 662 661 668 669 670 671 672 673 674 675 663","building":"yes"},"78":{"nodes":"676 677 678 679 680 681 682 683 684 685 686 676","building":"yes"},"79":{"nodes":"687 688 689 690 691 692 693 694 695 696 697 687","wall":"no","building":"yes"},"180":{"nodes":"1969 1970 1285 1284 1283 1971 1972 1973 1974 1975 1976 1977 1978 1979 1980 1981 1982 1983 1984 1985 1986 1987 1969","building":"yes"},"181":{"nodes":"1988 1989 1990 1991 1992 1993 1994 1995 1996 1997 1998 1999 2000 2001 2002 2003 2004 2005 2006 2007 2008 2009 2010 1988","building":"yes"},"182":{"nodes":"2011 2012 2013 2014 2015 2016 2017 2018 2019 2020 2021 2022 2023 2024 2025 2026 2027 2028 2029 2030 2031 2032 2033 2011","building":"yes"},"183":{"nodes":"2034 2035 2036 2037 2038 2039 2040 2041 2042 2043 2044 2045 2046 2047 2048 2049 2050 2051 2052 2053 2054 2055 2056 2034","building":"yes"},"184":{"nodes":"2057 2058 2059 2060 2061 2062 2063 2064 2065 2066 2067 2068 2069 2070 2071 2072 2073 2074 2075 2076 2077 2078 2079 2057","building":"yes"},"185":{"nodes":"2080 2081 2082 2083 2084 2085 2086 2087 2088 2089 2090 2091 2092 2093 2094 2095 2096 2097 2098 2099 2100 2101 2102 2103 2080","building":"yes"},"186":{"nodes":"2104 2105 2106 2107 2108 2109 2110 944 955 954 953 952 951 950 2111 854 853 852 851 2112 2113 2114 2115 2116 2104","building":"yes"},"187":{"nodes":"2117 2118 2119 2120 2121 2122 2123 2124 2125 2126 2127 2128 2129 2130 2131 2132 2133 2134 2135 2136 2137 2138 2139 2140 2141 2142 2143 2144 2117","building":"yes"},"188":{"nodes":"2145 2146 2147 2148 2149 2150 2151 2152 2153 2154 2155 2156 2157 2158 2159 2160 2161 2162 2163 2164 2165 2166 2167 2168 2169 2170 2171 2172 2145","building":"yes"},"189":{"nodes":"2173 2174 2175 2176 2177 2178 2179 2180 2181 2182 2183 2184 2185 2186 2187 2188 2189 1142 1141 1151 1150 2190 2191 2192 2193 2194 2195 2196 2197 2173","building":"yes"},"80":{"nodes":"698 699 700 701 702 703 704 705 706 707 708 698","building":"yes"},"81":{"nodes":"709 710 711 712 713 714 715 716 717 718 719 709","building":"yes"},"82":{"nodes":"720 721 722 723 724 725 726 727 728 729 730 720","building":"yes"},"83":{"nodes":"731 732 733 734 735 691 690 689 688 736 737 731","building":"yes"},"84":{"nodes":"738 739 740 741 742 743 744 745 746 747 748 738","building":"yes"},"85":{"nodes":"749 750 751 752 753 754 755 756 757 758 759 749","building":"yes"},"86":{"nodes":"760 761 762 763 764 765 766 767 768 769 770 760","building":"yes"},"87":{"nodes":"771 772 773 774 775 776 777 778 779 780 781 771","building":"yes"},"88":{"nodes":"782 783 784 785 786 787 788 789 790 791 792 782","building":"yes"},"89":{"nodes":"793 794 795 796 797 798 580 586 585 584 583 799 793","building":"yes"},"190":{"nodes":"2198 2199 2200 2201 2202 2203 2204 2205 2206 2207 2208 2209 2198","building":"yes"},"191":{"nodes":"2210 456 455 454 2211 2210","building":"yes"},"192":{"nodes":"2212 2213 2214 2215 2212","building":"yes"},"193":{"nodes":"2216 2217 2218 2219 2216","building":"yes"},"194":{"nodes":"2220 2221 2222 2223 2220","building":"yes"},"195":{"nodes":"2224 2225 2226 2227 2224","building":"yes"},"196":{"nodes":"2228 2229 2230 2231 2228","building":"yes"},"197":{"nodes":"2232 2233 2234 2235 2232","wall":"no","building":"yes"},"198":{"nodes":"2236 2237 2238 2239 2236","wall":"no","building":"yes"},"199":{"nodes":"2240 2241 2242 2243 2240","wall":"no","building":"yes"},"90":{"nodes":"800 801 802 803 804 805 806 807 808 809 810 811 800","building":"yes"},"91":{"nodes":"812 813 814 815 816 817 818 819 820 821 822 823 812","building":"yes"},"92":{"nodes":"423 824 825 826 827 828 829 830 831 832 833 424 423","building":"yes"},"93":{"nodes":"834 835 836 837 838 839 840 841 842 843 844 845 834","building":"yes"},"94":{"nodes":"846 847 848 849 850 851 852 853 854 855 856 857 846","building":"yes"},"95":{"nodes":"858 859 860 861 862 863 864 865 866 867 868 869 870 871 858","building":"yes"},"96":{"nodes":"872 873 874 875 876 877 878 879 880 881 882 883 872","building":"yes"},"97":{"nodes":"884 885 886 887 888 889 890 891 892 893 894 895 884","building":"yes"},"98":{"nodes":"896 897 898 899 900 901 902 903 904 905 906 907 896","building":"yes"},"99":{"nodes":"908 909 910 911 912 913 914 915 916 917 918 919 908","building":"yes"}}