{"44":{"nodes":"193 194 195 196 197 198 199 200 201 202 203","name":"Route des Levées","highway":"residential"},"45":{"ref":"D 295","nodes":"204 205 206 207 208 209 210 211 212","name":"Rue Chaude","highway":"tertiary"},"46":{"nodes":"213 214","surface":"asphalt","name":"Rue Coulon","maxspeed":"50","highway":"residential"},"47":{"ref":"D 18","nodes":"94 215 216 217 218 219 220 221 222 223 224 225 226 163 227","name":"Rue Henri Cadiou","highway":"secondary"},"48":{"nodes":"48 21","access":"yes","bicycle":"yes","surface":"cobblestone","name":"Rue Jules Renard","maxspeed":"50","highway":"residential","foot":"yes","oneway":"no","cycleway":"lane"},"49":{"ref":"D 985","nodes":"67 228 229 97 160","surface":"asphalt","name":"Rue Rollin","highway":"secondary"},"50":{"nodes":"58 230 231 232 136 233","name":"Rue Saint-Antoine","highway":"residential"},"51":{"nodes":"233 234 235 193","name":"Rue Saint-Jacques","highway":"residential"},"52":{"nodes":"108 236 237 238 239 240 241 242 243 244 245 213","surface":"asphalt","name":"Rue de Champmartin","highway":"residential"},"53":{"ref":"D 985","nodes":"246 247 45","name":"Rue de James","highway":"secondary"},"10":{"nodes":"18 59 60 61","name":"Rue de la Mission","highway":"residential"},"54":{"nodes":"233 248 249 250 251 252","name":"Rue de la Garenne","highway":"residential"},"11":{"nodes":"22 62","name":"Avenue François Mitterrand","bridge":"yes","highway":"residential","layer":"1","oneway":"no"},"55":{"nodes":"253 254 255 256 257 235","name":"Rue des Grilles","highway":"residential"},"12":{"nodes":"62 63 64 65 66 13","name":"Place du Champ de Foire","highway":"residential","oneway":"no"},"56":{"nodes":"221 258 259 260 261 262 263 264 265 266 267 268 213","surface":"asphalt","name":"Rue des Groseilliers","maxspeed":"50","highway":"residential"},"13":{"ref":"D 985","nodes":"18 67","surface":"asphalt","name":"Rue Rollin","bridge":"yes","highway":"secondary","layer":"1"},"57":{"nodes":"193 269 270 271 272","name":"Rue des Levées","highway":"residential"},"14":{"nodes":"6 68","surface":"asphalt","name":"Place La Fayette","highway":"residential"},"58":{"nodes":"268 273 274 275 276 277 113","surface":"asphalt","name":"Rue des Marbres","highway":"unclassified"},"15":{"nodes":"69 70 71 72 73 74 75 76 77 78 79 80 81 82 83 84 85 86 87 88 89 90 91 92 93 94","surface":"asphalt","name":"Chemin de la Corvée","maxspeed":"50","highway":"residential"},"59":{"ref":"D 37","nodes":"278 279 280 281 282 283 149","name":"Rue des Promenades","highway":"secondary"},"16":{"nodes":"47 95 96 97","surface":"asphalt","name":"Rue des Privons","maxspeed":"50","highway":"residential"},"17":{"nodes":"98 99 100 101 102","surface":"asphalt","name":"Avenue Jules Miot","maxspeed":"50","highway":"residential"},"18":{"nodes":"103 104 105 106 107","surface":"asphalt","ref:FR:FANTOIR":"581820207V","name":"Rue Lotissement du Haut Pontot","maxspeed":"50","highway":"residential"},"19":{"nodes":"108 109 110 111 112 113","surface":"asphalt","name":"Rue du Puits","maxspeed":"50","highway":"residential"},"0":{"ref":"D 37","nodes":"0 1 2 3","name":"Place Boucaumont","highway":"secondary"},"1":{"nodes":"4 5 6","surface":"asphalt","name":"Rue du Guichet","maxspeed":"50","highway":"residential"},"2":{"nodes":"1 7 8 9","name":"Rue Notre-Dame","highway":"residential"},"3":{"ref":"D 985","nodes":"10 11 12 13 14 15 16 17 18","surface":"asphalt","name":"Rue des Fossés","highway":"secondary"},"4":{"nodes":"19 20 21 22","name":"Avenue François Mitterrand","highway":"residential","oneway":"no"},"5":{"nodes":"23 19 24 25 26 27 28 29","name":"Avenue de la Gare","highway":"residential"},"6":{"nodes":"30 31 32 33 34 35 36 37","name":"Impasse des Écoles","highway":"residential"},"7":{"nodes":"38 39 40 41 42 43 44 45","name":"Avenue Perricaudet","highway":"residential"},"8":{"nodes":"20 46 47 48","access":"yes","bicycle":"yes","surface":"cobblestone","name":"Rue de la République","maxspeed":"50","highway":"residential","foot":"yes","oneway":"no","cycleway":"lane"},"9":{"nodes":"49 50 51 52 53 54 55 56 57 58","name":"Rue Salonyer","highway":"residential"},"60":{"nodes":"284 285 286 287 197","name":"Rue du Canada","highway":"residential"},"61":{"nodes":"49 12","name":"Rue du Comice","highway":"residential"},"62":{"nodes":"113 69 288 289 290 291 292 293 294 295 296 297 298 299 300 301 302 303","surface":"asphalt","name":"Rue du Gros Chêne","highway":"unclassified"},"63":{"nodes":"52 157 304 305 306 307 308 309 310 311 232","surface":"asphalt","name":"Rue du Vieux Château","maxspeed":"50","highway":"residential"},"20":{"nodes":"114 115 116 117 118 119 120","surface":"asphalt","name":"Chemin du Four aux Moines","highway":"residential"},"64":{"nodes":"279 312 313","surface":"concrete","name":"Rue du Marché","highway":"residential"},"21":{"nodes":"121 122 123 124 107 125 126","surface":"asphalt","ref:FR:FANTOIR":"581820207V","name":"Rue Lotissement du Haut Pontot","maxspeed":"50","highway":"residential"},"65":{"ref":"D 295","nodes":"212","highway":"tertiary"},"22":{"nodes":"127 120 128 129 130 131 132 133 108","surface":"asphalt","name":"Route du Bois Chaume","highway":"residential"},"66":{"nodes":"314 315 168 316","ref:FR:FANTOIR":"581820255X","name":"Quartier des Moulins","highway":"residential"},"23":{"nodes":"61 134 135 136","name":"Place Louis Lepère","highway":"residential"},"67":{"nodes":"167 314","ref:FR:FANTOIR":"581820255X","covered":"yes","name":"Quartier des Moulins","highway":"residential"},"24":{"ref":"D 37","nodes":"137 3","name":"Place Boucaumont","highway":"secondary"},"68":{"nodes":"317 159","surface":"concrete","name":"Rue du Marché","highway":"residential"},"25":{"ref":"D 985","nodes":"45 138 139 140 141 142 137","name":"Rue Gaston Blin","highway":"secondary"},"69":{"nodes":"313 317","surface":"concrete","name":"Rue du Marché","bridge":"yes","highway":"residential","layer":"1"},"26":{"nodes":"143 38","name":"Avenue Perricaudet","bridge":"yes","highway":"residential","layer":"1"},"27":{"nodes":"63 144 145 146 143","name":"Avenue Perricaudet","highway":"residential"},"28":{"ref":"D 18","nodes":"147 148 94","highway":"secondary"},"29":{"ref":"D 37","nodes":"149 0","highway":"secondary"},"70":{"nodes":"318 4","surface":"asphalt","name":"Rue du Guichet","maxspeed":"50","bridge":"yes","highway":"residential","layer":"1"},"71":{"nodes":"278 319 318","surface":"asphalt","name":"Rue du Guichet","maxspeed":"50","highway":"residential"},"72":{"ref":"D 37","nodes":"320 321 322 323 324 325 326 327 328 329 278","name":"Route de Château-Chinon","highway":"secondary"},"73":{"ref":"D 37","nodes":"181 320","name":"Route de Château-Chinon","bridge":"yes","highway":"secondary","layer":"1"},"30":{"nodes":"150 151","name":"Impasse du Verdier","bridge":"yes","highway":"residential","layer":"1"},"74":{"nodes":"330 278","surface":"asphalt","name":"Rue Coulon","maxspeed":"50","highway":"residential"},"31":{"nodes":"151 144","name":"Impasse du Verdier","highway":"residential"},"75":{"nodes":"214 330","surface":"asphalt","name":"Rue Coulon","maxspeed":"50","bridge":"yes","highway":"residential","layer":"1"},"32":{"nodes":"152 153 150","name":"Impasse du Verdier","highway":"residential"},"76":{"ref":"D 18","nodes":"331 279","name":"Rue Henri Cadiou","highway":"secondary"},"33":{"nodes":"58 16","name":"Passage de la Tour","highway":"residential"},"77":{"ref":"D 18","nodes":"227 331","name":"Rue Henri Cadiou","bridge":"yes","highway":"secondary","layer":"1"},"34":{"nodes":"6 154 155 156 157","surface":"asphalt","name":"Passage du Château","maxspeed":"50","highway":"residential"},"78":{"ref":"D 295","nodes":"332 204","name":"Rue Chaude","bridge":"yes","highway":"tertiary","layer":"1"},"35":{"ref":"D 985","nodes":"3 10","surface":"asphalt","name":"Place Boucaumont","highway":"secondary"},"79":{"ref":"D 295","nodes":"0 332","name":"Rue Chaude","highway":"tertiary"},"36":{"nodes":"9 158","surface":"asphalt","name":"Place La Fayette","highway":"residential"},"37":{"nodes":"159 158 68 49","surface":"asphalt","name":"Place La Fayette","highway":"residential"},"38":{"ref":"D 985","nodes":"160 161 162","surface":"asphalt","name":"Place du Docteur Martin","highway":"secondary"},"39":{"nodes":"163 164 165 166 167","ref:FR:FANTOIR":"581820255X","name":"Quartier des Moulins","highway":"residential"},"40":{"nodes":"168 169 170 171 172 173 174 175 169","ref:FR:FANTOIR":"581820255X","name":"Quartier des Moulins","highway":"residential"},"41":{"ref":"D 37","nodes":"114 176 177 178 179 180 181","name":"Route de Château-Chinon","highway":"secondary"},"42":{"ref":"D 985","nodes":"162 182 183 184 185 186 98 187 103 188","surface":"asphalt","name":"Route de Châtillon","highway":"secondary"},"43":{"ref":"D 132","nodes":"160 189 190 191 192 102 29 126 37","name":"Route de Limanton","highway":"tertiary"}}